{
  "type": "FeatureCollection",
  "generator": "overpass-turbo",
  "copyright": "The data included in this document is from www.openstreetmap.org. The data is made available under ODbL.",
  "timestamp": "2026-06-10T13:26:34Z",
  "features": [
    {
      "type": "Feature",
      "properties": {
        "@id": "relation/8010088",
        "building": "dormitory",
        "building:levels": "4",
        "roof:colour": "#909090",
        "roof:shape": "flat",
        "type": "multipolygon",
        "@geometry": "center"
      },
      "geometry": {
        "type": "Point",
        "coordinates": [
          8.4846154,
          49.5247058
        ]
      },
      "id": "relation/8010088"
    },
    {
      "type": "Feature",
      "properties": {
        "@id": "way/110948488",
        "building": "dormitory",
        "name": "C",
        "@geometry": "center"
      },
      "geometry": {
        "type": "Point",
        "coordinates": [
          8.5128817,
          49.4760989
        ]
      },
      "id": "way/110948488"
    },
    {
      "type": "Feature",
      "properties": {
        "@id": "way/110948489",
        "building": "dormitory",
        "name": "B",
        "@geometry": "center"
      },
      "geometry": {
        "type": "Point",
        "coordinates": [
          8.5128634,
          49.4756539
        ]
      },
      "id": "way/110948489"
    },
    {
      "type": "Feature",
      "properties": {
        "@id": "way/119323314",
        "addr:city": "Mannheim",
        "addr:housenumber": "8",
        "addr:street": "N6",
        "building": "dormitory",
        "building:levels": "11",
        "contact:phone": "+49 176 16212607",
        "height": "33",
        "int_name": "dorm",
        "name": "Studierendenwohnheim N6",
        "name:de": "Hermann-Heimerich-Haus",
        "operator": "Studierendenwerk Mannheim",
        "smoking": "no",
        "website": "https://www.stw-ma.de/Wohnen/Wohnh%C3%A4user/Wohnhaus+N+6_+8-p-282.html",
        "wheelchair": "no",
        "@geometry": "center"
      },
      "geometry": {
        "type": "Point",
        "coordinates": [
          8.4694879,
          49.4844057
        ]
      },
      "id": "way/119323314"
    },
    {
      "type": "Feature",
      "properties": {
        "@id": "way/142592444",
        "addr:housenumber": "7-9",
        "addr:place": "E6",
        "building": "dormitory",
        "building:levels": "3",
        "roof:colour": "maroon",
        "roof:height": "7",
        "roof:shape": "hipped",
        "@geometry": "center"
      },
      "geometry": {
        "type": "Point",
        "coordinates": [
          8.4616466,
          49.4900405
        ]
      },
      "id": "way/142592444"
    },
    {
      "type": "Feature",
      "properties": {
        "@id": "way/142592445",
        "addr:housenumber": "10",
        "addr:place": "E6",
        "building": "dormitory",
        "building:levels": "2",
        "roof:colour": "maroon",
        "roof:height": "5",
        "roof:shape": "hipped",
        "@geometry": "center"
      },
      "geometry": {
        "type": "Point",
        "coordinates": [
          8.4612952,
          49.4898153
        ]
      },
      "id": "way/142592445"
    },
    {
      "type": "Feature",
      "properties": {
        "@id": "way/148515473",
        "addr:city": "Mannheim",
        "addr:country": "DE",
        "addr:housenumber": "112-114",
        "addr:postcode": "68165",
        "addr:street": "Augartenstraße",
        "building": "dormitory",
        "building:levels": "6",
        "name": "Studentenwohnhaus Augartenstraße",
        "roof:levels": "1",
        "@geometry": "center"
      },
      "geometry": {
        "type": "Point",
        "coordinates": [
          8.4855653,
          49.4744441
        ]
      },
      "id": "way/148515473"
    },
    {
      "type": "Feature",
      "properties": {
        "@id": "way/150384643",
        "WLAN": "yes",
        "addr:city": "Mannheim",
        "addr:country": "DE",
        "addr:housenumber": "35",
        "addr:postcode": "68159",
        "addr:street": "Hafenstraße",
        "building": "dormitory",
        "building:levels": "6",
        "contact:facebook": "https://www.facebook.com/stw.ma",
        "contact:instagram": "https://www.instagram.com/studierendenwerk_mannheim",
        "contact:twitter": "https://www.twitter.com/StwMannheim",
        "contact:website": "https://www.stw-ma.de/",
        "name": "Studierendenwohnheim",
        "operator": "Studierendenwerk Mannheim",
        "wheelchair": "no",
        "@geometry": "center"
      },
      "geometry": {
        "type": "Point",
        "coordinates": [
          8.4572953,
          49.4966955
        ]
      },
      "id": "way/150384643"
    },
    {
      "type": "Feature",
      "properties": {
        "@id": "way/150384645",
        "WLAN": "yes",
        "addr:city": "Mannheim",
        "addr:country": "DE",
        "addr:housenumber": "37",
        "addr:postcode": "68159",
        "addr:street": "Hafenstraße",
        "building": "dormitory",
        "building:levels": "6",
        "contact:facebook": "https://www.facebook.com/stw.ma",
        "contact:instagram": "https://www.instagram.com/studierendenwerk_mannheim",
        "contact:twitter": "https://www.twitter.com/StwMannheim",
        "contact:website": "https://www.stw-ma.de/",
        "name": "Studierendenwohnheim",
        "operator": "Studierendenwerk Mannheim",
        "wheelchair": "no",
        "@geometry": "center"
      },
      "geometry": {
        "type": "Point",
        "coordinates": [
          8.457326,
          49.4968668
        ]
      },
      "id": "way/150384645"
    },
    {
      "type": "Feature",
      "properties": {
        "@id": "way/150384649",
        "WLAN": "yes",
        "addr:city": "Mannheim",
        "addr:country": "DE",
        "addr:housenumber": "39",
        "addr:postcode": "68159",
        "addr:street": "Hafenstraße",
        "building": "dormitory",
        "building:levels": "6",
        "contact:facebook": "https://www.facebook.com/stw.ma",
        "contact:instagram": "https://www.instagram.com/studierendenwerk_mannheim",
        "contact:twitter": "https://www.twitter.com/StwMannheim",
        "contact:website": "https://www.stw-ma.de/",
        "name": "Studierendenwohnheim",
        "operator": "Studierendenwerk Mannheim",
        "wheelchair": "no",
        "@geometry": "center"
      },
      "geometry": {
        "type": "Point",
        "coordinates": [
          8.4573685,
          49.4970806
        ]
      },
      "id": "way/150384649"
    },
    {
      "type": "Feature",
      "properties": {
        "@id": "way/150384651",
        "WLAN": "yes",
        "addr:city": "Mannheim",
        "addr:country": "DE",
        "addr:housenumber": "41",
        "addr:postcode": "68159",
        "addr:street": "Hafenstraße",
        "building": "dormitory",
        "building:levels": "6",
        "contact:facebook": "https://www.facebook.com/stw.ma",
        "contact:instagram": "https://www.instagram.com/studierendenwerk_mannheim",
        "contact:twitter": "https://www.twitter.com/StwMannheim",
        "contact:website": "https://www.stw-ma.de/",
        "name": "Studierendenwohnheim",
        "operator": "Studierendenwerk Mannheim",
        "wheelchair": "no",
        "@geometry": "center"
      },
      "geometry": {
        "type": "Point",
        "coordinates": [
          8.4574,
          49.4972497
        ]
      },
      "id": "way/150384651"
    },
    {
      "type": "Feature",
      "properties": {
        "@id": "way/150384652",
        "addr:city": "Mannheim",
        "addr:country": "DE",
        "addr:housenumber": "43",
        "addr:postcode": "68159",
        "addr:street": "Hafenstraße",
        "building": "dormitory",
        "building:levels": "6",
        "contact:facebook": "https://www.facebook.com/stw.ma",
        "contact:instagram": "https://www.instagram.com/studierendenwerk_mannheim",
        "contact:twitter": "https://www.twitter.com/StwMannheim",
        "contact:website": "https://www.stw-ma.de/",
        "internet_access": "wlan",
        "name": "Studierendenwohnheim",
        "operator": "Studierendenwerk Mannheim",
        "wheelchair": "no",
        "@geometry": "center"
      },
      "geometry": {
        "type": "Point",
        "coordinates": [
          8.4574749,
          49.4974587
        ]
      },
      "id": "way/150384652"
    },
    {
      "type": "Feature",
      "properties": {
        "@id": "way/150384653",
        "addr:city": "Mannheim",
        "addr:country": "DE",
        "addr:housenumber": "45",
        "addr:postcode": "68159",
        "addr:street": "Hafenstraße",
        "building": "dormitory",
        "building:levels": "6",
        "contact:facebook": "https://www.facebook.com/stw.ma",
        "contact:instagram": "https://www.instagram.com/studierendenwerk_mannheim",
        "contact:twitter": "https://www.twitter.com/StwMannheim",
        "contact:website": "https://www.stw-ma.de/",
        "internet_access": "wlan",
        "name": "Studierendenwohnheim",
        "operator": "Studierendenwerk Mannheim",
        "wheelchair": "no",
        "@geometry": "center"
      },
      "geometry": {
        "type": "Point",
        "coordinates": [
          8.4575073,
          49.4976274
        ]
      },
      "id": "way/150384653"
    },
    {
      "type": "Feature",
      "properties": {
        "@id": "way/150817460",
        "addr:city": "Mannheim",
        "addr:country": "DE",
        "addr:housenumber": "167",
        "addr:postcode": "68199",
        "addr:street": "Neckarauer Straße",
        "building": "dormitory",
        "building:levels": "4",
        "dormitory": "student",
        "roof:levels": "1",
        "@geometry": "center"
      },
      "geometry": {
        "type": "Point",
        "coordinates": [
          8.4876786,
          49.4637407
        ]
      },
      "id": "way/150817460"
    },
    {
      "type": "Feature",
      "properties": {
        "@id": "way/150817461",
        "addr:city": "Mannheim",
        "addr:country": "DE",
        "addr:housenumber": "169",
        "addr:postcode": "68199",
        "addr:street": "Neckarauer Straße",
        "building": "dormitory",
        "building:levels": "4",
        "dormitory": "student",
        "roof:levels": "1",
        "@geometry": "center"
      },
      "geometry": {
        "type": "Point",
        "coordinates": [
          8.4875642,
          49.4638863
        ]
      },
      "id": "way/150817461"
    },
    {
      "type": "Feature",
      "properties": {
        "@id": "way/150817462",
        "addr:city": "Mannheim",
        "addr:country": "DE",
        "addr:housenumber": "171",
        "addr:postcode": "68199",
        "addr:street": "Neckarauer Straße",
        "building": "dormitory",
        "building:levels": "5",
        "dormitory": "student",
        "roof:levels": "1",
        "@geometry": "center"
      },
      "geometry": {
        "type": "Point",
        "coordinates": [
          8.4874399,
          49.4640399
        ]
      },
      "id": "way/150817462"
    },
    {
      "type": "Feature",
      "properties": {
        "@id": "way/150817463",
        "addr:city": "Mannheim",
        "addr:country": "DE",
        "addr:housenumber": "173",
        "addr:postcode": "68199",
        "addr:street": "Neckarauer Straße",
        "building": "dormitory",
        "building:levels": "5",
        "dormitory": "student",
        "roof:levels": "1",
        "@geometry": "center"
      },
      "geometry": {
        "type": "Point",
        "coordinates": [
          8.4873352,
          49.4641872
        ]
      },
      "id": "way/150817463"
    },
    {
      "type": "Feature",
      "properties": {
        "@id": "way/151651652",
        "addr:housenumber": "6",
        "addr:place": "E6",
        "building": "dormitory",
        "building:colour": "#F8F8F8",
        "building:levels": "3",
        "roof:colour": "#707060",
        "roof:shape": "flat",
        "@geometry": "center"
      },
      "geometry": {
        "type": "Point",
        "coordinates": [
          8.4619753,
          49.4900573
        ]
      },
      "id": "way/151651652"
    },
    {
      "type": "Feature",
      "properties": {
        "@id": "way/152595728",
        "addr:city": "Mannheim",
        "addr:country": "DE",
        "addr:housenumber": "1",
        "addr:postcode": "68199",
        "addr:street": "Hans-Sachs-Ring",
        "building": "dormitory",
        "building:levels": "6",
        "roof:levels": "1",
        "roof:shape": "gabled",
        "@geometry": "center"
      },
      "geometry": {
        "type": "Point",
        "coordinates": [
          8.4809443,
          49.4565666
        ]
      },
      "id": "way/152595728"
    },
    {
      "type": "Feature",
      "properties": {
        "@id": "way/152595729",
        "addr:city": "Mannheim",
        "addr:country": "DE",
        "addr:housenumber": "3",
        "addr:postcode": "68199",
        "addr:street": "Hans-Sachs-Ring",
        "building": "dormitory",
        "building:levels": "6",
        "roof:levels": "1",
        "roof:shape": "gabled",
        "@geometry": "center"
      },
      "geometry": {
        "type": "Point",
        "coordinates": [
          8.4806969,
          49.4564923
        ]
      },
      "id": "way/152595729"
    },
    {
      "type": "Feature",
      "properties": {
        "@id": "way/152595730",
        "addr:city": "Mannheim",
        "addr:country": "DE",
        "addr:housenumber": "5",
        "addr:postcode": "68199",
        "addr:street": "Hans-Sachs-Ring",
        "building": "dormitory",
        "building:levels": "6",
        "roof:levels": "1",
        "roof:shape": "gabled",
        "@geometry": "center"
      },
      "geometry": {
        "type": "Point",
        "coordinates": [
          8.4804574,
          49.4564185
        ]
      },
      "id": "way/152595730"
    },
    {
      "type": "Feature",
      "properties": {
        "@id": "way/152595731",
        "addr:city": "Mannheim",
        "addr:country": "DE",
        "addr:housenumber": "80",
        "addr:postcode": "68199",
        "addr:street": "Steubenstraße",
        "building": "dormitory",
        "building:levels": "6",
        "roof:levels": "1",
        "roof:shape": "gabled",
        "@geometry": "center"
      },
      "geometry": {
        "type": "Point",
        "coordinates": [
          8.4810809,
          49.4564671
        ]
      },
      "id": "way/152595731"
    },
    {
      "type": "Feature",
      "properties": {
        "@id": "way/162151442",
        "addr:city": "Mannheim",
        "addr:housenumber": "4a",
        "addr:postcode": "68163",
        "addr:street": "Seckenheimer Landstraße",
        "building": "dormitory",
        "building:levels": "3",
        "name": "Studentenwohnheim Eastsite",
        "@geometry": "center"
      },
      "geometry": {
        "type": "Point",
        "coordinates": [
          8.5068655,
          49.4769544
        ]
      },
      "id": "way/162151442"
    },
    {
      "type": "Feature",
      "properties": {
        "@id": "way/162152460",
        "building": "dormitory",
        "name": "A",
        "@geometry": "center"
      },
      "geometry": {
        "type": "Point",
        "coordinates": [
          8.5121875,
          49.4756151
        ]
      },
      "id": "way/162152460"
    },
    {
      "type": "Feature",
      "properties": {
        "@id": "way/162614773",
        "building": "dormitory",
        "level": "2",
        "roof:colour": "brown",
        "roof:shape": "hipped",
        "@geometry": "center"
      },
      "geometry": {
        "type": "Point",
        "coordinates": [
          8.492639,
          49.5326511
        ]
      },
      "id": "way/162614773"
    },
    {
      "type": "Feature",
      "properties": {
        "@id": "way/163630158",
        "building": "dormitory",
        "building:levels": "2",
        "name": "4242",
        "@geometry": "center"
      },
      "geometry": {
        "type": "Point",
        "coordinates": [
          8.5643466,
          49.4030691
        ]
      },
      "id": "way/163630158"
    },
    {
      "type": "Feature",
      "properties": {
        "@id": "way/163630166",
        "building": "dormitory",
        "building:levels": "2",
        "@geometry": "center"
      },
      "geometry": {
        "type": "Point",
        "coordinates": [
          8.5644864,
          49.4021209
        ]
      },
      "id": "way/163630166"
    },
    {
      "type": "Feature",
      "properties": {
        "@id": "way/166051776",
        "addr:city": "Mannheim",
        "addr:country": "DE",
        "addr:housenumber": "15",
        "addr:place": "B7",
        "addr:postcode": "68159",
        "building": "dormitory",
        "building:levels": "6",
        "operator": "Studierendenwerk Mannheim",
        "roof:colour": "brown",
        "@geometry": "center"
      },
      "geometry": {
        "type": "Point",
        "coordinates": [
          8.4565392,
          49.4888461
        ]
      },
      "id": "way/166051776"
    },
    {
      "type": "Feature",
      "properties": {
        "@id": "way/166051782",
        "addr:city": "Mannheim",
        "addr:country": "DE",
        "addr:housenumber": "14",
        "addr:place": "B7",
        "addr:postcode": "68159",
        "building": "dormitory",
        "building:levels": "6",
        "operator": "Studierendenwerk Mannheim",
        "roof:colour": "brown",
        "@geometry": "center"
      },
      "geometry": {
        "type": "Point",
        "coordinates": [
          8.4566011,
          49.4889723
        ]
      },
      "id": "way/166051782"
    },
    {
      "type": "Feature",
      "properties": {
        "@id": "way/166336017",
        "addr:housenumber": "15",
        "addr:street": "Käthe-Kollwitz-Straße",
        "building": "dormitory",
        "name": "CAMPUS68",
        "note": "https://www.alan-soehne.de/bauvorhaben/alan-campus-am-herzogenriedpark/",
        "old_name": "Internationaler Bund",
        "was:amenity": "social_facility",
        "website": "https://www.campus68.de/",
        "@geometry": "center"
      },
      "geometry": {
        "type": "Point",
        "coordinates": [
          8.4728281,
          49.5063202
        ]
      },
      "id": "way/166336017"
    },
    {
      "type": "Feature",
      "properties": {
        "@id": "way/171677979",
        "addr:city": "Ludwigshafen am Rhein",
        "addr:country": "DE",
        "addr:housenumber": "13",
        "addr:postcode": "67059",
        "addr:street": "Heinigstraße",
        "building": "dormitory",
        "building:levels": "7",
        "building:units": "155",
        "operator:website": "https://stw-vp.de/de/wohnen/studentisches-wohnen/hei/",
        "source": "HiRes aerial imagery",
        "wheelchair": "yes",
        "year_of_construction": "1991",
        "@geometry": "center"
      },
      "geometry": {
        "type": "Point",
        "coordinates": [
          8.44419,
          49.4773286
        ]
      },
      "id": "way/171677979"
    },
    {
      "type": "Feature",
      "properties": {
        "@id": "way/192987585",
        "addr:city": "Mannheim",
        "addr:housenumber": "28",
        "addr:place": "G7",
        "addr:postcode": "68159",
        "building": "dormitory",
        "name": "Studentenwohnhaus G7, 28",
        "website": "http://www.studentenwerk-mannheim.de/egotec/Wohnen/Wohnh%C3%A4user/G+7_+26_28/Informationen-p-1328.html",
        "@geometry": "center"
      },
      "geometry": {
        "type": "Point",
        "coordinates": [
          8.4600395,
          49.4922217
        ]
      },
      "id": "way/192987585"
    },
    {
      "type": "Feature",
      "properties": {
        "@id": "way/197559085",
        "addr:city": "Mannheim",
        "addr:country": "DE",
        "addr:housenumber": "12",
        "addr:place": "D6",
        "addr:postcode": "68159",
        "building": "dormitory",
        "building:levels": "6",
        "name": "Alfred-Delp-Haus",
        "roof:colour": "#707060",
        "roof:shape": "flat",
        "website": "http://site.alfred-delp-haus.de/",
        "@geometry": "center"
      },
      "geometry": {
        "type": "Point",
        "coordinates": [
          8.4608487,
          49.4893579
        ]
      },
      "id": "way/197559085"
    },
    {
      "type": "Feature",
      "properties": {
        "@id": "way/197559107",
        "addr:city": "Mannheim",
        "addr:country": "DE",
        "addr:housenumber": "15",
        "addr:place": "D6",
        "addr:postcode": "68159",
        "building": "dormitory",
        "building:levels": "6",
        "name": "Katholische Hochschulgemeinde",
        "roof:colour": "#707060",
        "roof:shape": "flat",
        "website": "https://khg-mannheim.de/",
        "@geometry": "center"
      },
      "geometry": {
        "type": "Point",
        "coordinates": [
          8.4607416,
          49.4891695
        ]
      },
      "id": "way/197559107"
    },
    {
      "type": "Feature",
      "properties": {
        "@id": "way/217619054",
        "addr:city": "Mannheim",
        "addr:country": "DE",
        "addr:housenumber": "105",
        "addr:postcode": "68199",
        "addr:street": "Schulstraße",
        "building": "dormitory",
        "building:levels": "3",
        "fax": "+49 621 71880779",
        "name": "TDB Bildungsverein e.V. Wohnheim",
        "phone": "+49 621 859562",
        "website": "https://www.tdb-mannheim.de/",
        "@geometry": "center"
      },
      "geometry": {
        "type": "Point",
        "coordinates": [
          8.4917788,
          49.4606667
        ]
      },
      "id": "way/217619054"
    },
    {
      "type": "Feature",
      "properties": {
        "@id": "way/218557265",
        "addr:city": "Mannheim",
        "addr:country": "DE",
        "addr:housenumber": "39",
        "addr:postcode": "68199",
        "addr:street": "Speyerer Straße",
        "building": "dormitory",
        "building:levels": "4",
        "roof:levels": "1",
        "roof:shape": "hipped",
        "@geometry": "center"
      },
      "geometry": {
        "type": "Point",
        "coordinates": [
          8.4795721,
          49.4661524
        ]
      },
      "id": "way/218557265"
    },
    {
      "type": "Feature",
      "properties": {
        "@id": "way/218557267",
        "addr:city": "Mannheim",
        "addr:country": "DE",
        "addr:housenumber": "41",
        "addr:postcode": "68199",
        "addr:street": "Speyerer Straße",
        "building": "dormitory",
        "building:levels": "4",
        "roof:levels": "1",
        "roof:shape": "hipped",
        "@geometry": "center"
      },
      "geometry": {
        "type": "Point",
        "coordinates": [
          8.4793734,
          49.4660615
        ]
      },
      "id": "way/218557267"
    },
    {
      "type": "Feature",
      "properties": {
        "@id": "way/218557274",
        "addr:city": "Mannheim",
        "addr:country": "DE",
        "addr:housenumber": "55",
        "addr:postcode": "68199",
        "addr:street": "Speyerer Straße",
        "building": "dormitory",
        "building:levels": "4",
        "roof:levels": "1",
        "roof:shape": "hipped",
        "@geometry": "center"
      },
      "geometry": {
        "type": "Point",
        "coordinates": [
          8.4777078,
          49.4653988
        ]
      },
      "id": "way/218557274"
    },
    {
      "type": "Feature",
      "properties": {
        "@id": "way/218557275",
        "addr:city": "Mannheim",
        "addr:country": "DE",
        "addr:housenumber": "57",
        "addr:postcode": "68199",
        "addr:street": "Speyerer Straße",
        "building": "dormitory",
        "building:levels": "4",
        "roof:levels": "1",
        "roof:shape": "hipped",
        "@geometry": "center"
      },
      "geometry": {
        "type": "Point",
        "coordinates": [
          8.4774923,
          49.4653268
        ]
      },
      "id": "way/218557275"
    },
    {
      "type": "Feature",
      "properties": {
        "@id": "way/223921899",
        "addr:city": "Mannheim",
        "addr:housenumber": "19",
        "addr:street": "Pettenkoferstraße",
        "building": "dormitory",
        "building:levels": "4",
        "name": "Studentenwohnheim",
        "ref": "9150",
        "wheelchair": "no",
        "@geometry": "center"
      },
      "geometry": {
        "type": "Point",
        "coordinates": [
          8.4713024,
          49.5041487
        ]
      },
      "id": "way/223921899"
    },
    {
      "type": "Feature",
      "properties": {
        "@id": "way/226746496",
        "building": "dormitory",
        "building:levels": "5",
        "roof:shape": "flat",
        "@geometry": "center"
      },
      "geometry": {
        "type": "Point",
        "coordinates": [
          8.5090235,
          49.5304083
        ]
      },
      "id": "way/226746496"
    },
    {
      "type": "Feature",
      "properties": {
        "@id": "way/226746544",
        "building": "dormitory",
        "roof:shape": "flat",
        "@geometry": "center"
      },
      "geometry": {
        "type": "Point",
        "coordinates": [
          8.5077149,
          49.5300721
        ]
      },
      "id": "way/226746544"
    },
    {
      "type": "Feature",
      "properties": {
        "@id": "way/226746590",
        "addr:housenumber": "70",
        "addr:street": "Rottannenweg",
        "building": "dormitory",
        "roof:shape": "flat",
        "@geometry": "center"
      },
      "geometry": {
        "type": "Point",
        "coordinates": [
          8.5078805,
          49.5303129
        ]
      },
      "id": "way/226746590"
    },
    {
      "type": "Feature",
      "properties": {
        "@id": "way/226746591",
        "building": "dormitory",
        "roof:shape": "flat",
        "@geometry": "center"
      },
      "geometry": {
        "type": "Point",
        "coordinates": [
          8.5078286,
          49.5303417
        ]
      },
      "id": "way/226746591"
    },
    {
      "type": "Feature",
      "properties": {
        "@id": "way/270847418",
        "addr:city": "Mannheim",
        "addr:country": "DE",
        "addr:housenumber": "10",
        "addr:street": "Wetzlarer Winkel",
        "building": "dormitory",
        "@geometry": "center"
      },
      "geometry": {
        "type": "Point",
        "coordinates": [
          8.4921816,
          49.5231262
        ]
      },
      "id": "way/270847418"
    },
    {
      "type": "Feature",
      "properties": {
        "@id": "way/290258034",
        "addr:housenumber": "19",
        "addr:street": "Planetenweg",
        "building": "dormitory",
        "building:levels": "4",
        "roof:shape": "flat",
        "@geometry": "center"
      },
      "geometry": {
        "type": "Point",
        "coordinates": [
          8.508373,
          49.524172
        ]
      },
      "id": "way/290258034"
    },
    {
      "type": "Feature",
      "properties": {
        "@id": "way/300642718",
        "addr:city": "Mannheim",
        "building": "dormitory",
        "building:levels": "3",
        "roof:shape": "flat",
        "@geometry": "center"
      },
      "geometry": {
        "type": "Point",
        "coordinates": [
          8.5079019,
          49.5254898
        ]
      },
      "id": "way/300642718"
    },
    {
      "type": "Feature",
      "properties": {
        "@id": "way/304769189",
        "building": "dormitory",
        "building:levels": "3",
        "roof:shape": "gabled",
        "@geometry": "center"
      },
      "geometry": {
        "type": "Point",
        "coordinates": [
          8.5986359,
          49.4947516
        ]
      },
      "id": "way/304769189"
    },
    {
      "type": "Feature",
      "properties": {
        "@id": "way/317827300",
        "addr:place": "B7",
        "building": "dormitory",
        "building:levels": "4",
        "operator": "Studierendenwerk Mannheim",
        "roof:levels": "1",
        "roof:shape": "gabled",
        "@geometry": "center"
      },
      "geometry": {
        "type": "Point",
        "coordinates": [
          8.4567881,
          49.48883
        ]
      },
      "id": "way/317827300"
    },
    {
      "type": "Feature",
      "properties": {
        "@id": "way/322078678",
        "addr:city": "Mannheim",
        "addr:housenumber": "26",
        "addr:place": "G7",
        "addr:postcode": "68159",
        "building": "dormitory",
        "building:colour": "#d4c3a2",
        "building:levels": "5",
        "roof:colour": "#F5BCA9",
        "roof:levels": "1.5",
        "roof:shape": "gabled",
        "source:geometry": "LGL, www.lgl-bw.de",
        "website": "http://www.studentenwerk-mannheim.de/egotec/Wohnen/Wohnh%C3%A4user/G+7_+26_28/Informationen-p-1328.html",
        "@geometry": "center"
      },
      "geometry": {
        "type": "Point",
        "coordinates": [
          8.4599366,
          49.4925343
        ]
      },
      "id": "way/322078678"
    },
    {
      "type": "Feature",
      "properties": {
        "@id": "way/322435762",
        "addr:city": "Mannheim",
        "addr:country": "DE",
        "addr:housenumber": "10",
        "addr:place": "K4",
        "addr:postcode": "68159",
        "building": "dormitory",
        "name": "Christliches Studentenwohnheim Haus Friede",
        "source:geometry": "LGL, www.lgl-bw.de",
        "@geometry": "center"
      },
      "geometry": {
        "type": "Point",
        "coordinates": [
          8.4676964,
          49.4934119
        ]
      },
      "id": "way/322435762"
    },
    {
      "type": "Feature",
      "properties": {
        "@id": "way/326051227",
        "addr:city": "Ludwigshafen am Rhein",
        "addr:country": "DE",
        "addr:housenumber": "18",
        "addr:postcode": "67071",
        "addr:street": "Mörikestraße",
        "addr:suburb": "Oggersheim",
        "building": "dormitory",
        "@geometry": "center"
      },
      "geometry": {
        "type": "Point",
        "coordinates": [
          8.3654134,
          49.4881016
        ]
      },
      "id": "way/326051227"
    },
    {
      "type": "Feature",
      "properties": {
        "@id": "way/326051248",
        "addr:city": "Ludwigshafen am Rhein",
        "addr:country": "DE",
        "addr:housenumber": "20",
        "addr:postcode": "67071",
        "addr:street": "Mörikestraße",
        "addr:suburb": "Oggersheim",
        "building": "dormitory",
        "@geometry": "center"
      },
      "geometry": {
        "type": "Point",
        "coordinates": [
          8.3653271,
          49.4882768
        ]
      },
      "id": "way/326051248"
    },
    {
      "type": "Feature",
      "properties": {
        "@id": "way/326051263",
        "addr:city": "Ludwigshafen am Rhein",
        "addr:country": "DE",
        "addr:housenumber": "22",
        "addr:postcode": "67071",
        "addr:street": "Mörikestraße",
        "addr:suburb": "Oggersheim",
        "building": "dormitory",
        "@geometry": "center"
      },
      "geometry": {
        "type": "Point",
        "coordinates": [
          8.3652168,
          49.4885194
        ]
      },
      "id": "way/326051263"
    },
    {
      "type": "Feature",
      "properties": {
        "@id": "way/332372124",
        "addr:housenumber": "43",
        "addr:street": "Speyerer Straße",
        "building": "dormitory",
        "building:levels": "4",
        "roof:levels": "1",
        "roof:shape": "hipped",
        "@geometry": "center"
      },
      "geometry": {
        "type": "Point",
        "coordinates": [
          8.4790898,
          49.4658872
        ]
      },
      "id": "way/332372124"
    },
    {
      "type": "Feature",
      "properties": {
        "@id": "way/332372126",
        "addr:housenumber": "45",
        "addr:street": "Speyerer Straße",
        "building": "dormitory",
        "building:levels": "4",
        "roof:levels": "1",
        "roof:shape": "hipped",
        "@geometry": "center"
      },
      "geometry": {
        "type": "Point",
        "coordinates": [
          8.4788863,
          49.4658068
        ]
      },
      "id": "way/332372126"
    },
    {
      "type": "Feature",
      "properties": {
        "@id": "way/332372128",
        "addr:housenumber": "47",
        "addr:street": "Speyerer Straße",
        "building": "dormitory",
        "building:levels": "4",
        "roof:levels": "1",
        "roof:shape": "hipped",
        "@geometry": "center"
      },
      "geometry": {
        "type": "Point",
        "coordinates": [
          8.4786828,
          49.4657264
        ]
      },
      "id": "way/332372128"
    },
    {
      "type": "Feature",
      "properties": {
        "@id": "way/332372130",
        "addr:housenumber": "49",
        "addr:street": "Speyerer Straße",
        "building": "dormitory",
        "building:levels": "4",
        "roof:levels": "1",
        "roof:shape": "hipped",
        "@geometry": "center"
      },
      "geometry": {
        "type": "Point",
        "coordinates": [
          8.4784794,
          49.4656459
        ]
      },
      "id": "way/332372130"
    },
    {
      "type": "Feature",
      "properties": {
        "@id": "way/332372132",
        "addr:housenumber": "51",
        "addr:street": "Speyerer Straße",
        "building": "dormitory",
        "building:levels": "4",
        "roof:levels": "1",
        "roof:shape": "hipped",
        "@geometry": "center"
      },
      "geometry": {
        "type": "Point",
        "coordinates": [
          8.4782759,
          49.4655655
        ]
      },
      "id": "way/332372132"
    },
    {
      "type": "Feature",
      "properties": {
        "@id": "way/332372134",
        "addr:housenumber": "53",
        "addr:street": "Speyerer Straße",
        "building": "dormitory",
        "building:levels": "4",
        "roof:levels": "1",
        "roof:shape": "hipped",
        "@geometry": "center"
      },
      "geometry": {
        "type": "Point",
        "coordinates": [
          8.4780724,
          49.4654851
        ]
      },
      "id": "way/332372134"
    },
    {
      "type": "Feature",
      "properties": {
        "@id": "way/512317063",
        "addr:city": "Mannheim",
        "addr:housenumber": "8",
        "addr:postcode": "68163",
        "addr:street": "Oskar-Meixner-Straße",
        "building": "dormitory",
        "building:levels": "6",
        "name": "Studentenwohnheim",
        "roof:shape": "flat",
        "start_date": "~2017",
        "@geometry": "center"
      },
      "geometry": {
        "type": "Point",
        "coordinates": [
          8.4860487,
          49.4694647
        ]
      },
      "id": "way/512317063"
    },
    {
      "type": "Feature",
      "properties": {
        "@id": "way/871673939",
        "addr:place": "E6",
        "building": "dormitory",
        "building:levels": "1",
        "roof:colour": "#606060",
        "roof:shape": "flat",
        "@geometry": "center"
      },
      "geometry": {
        "type": "Point",
        "coordinates": [
          8.4613562,
          49.4899039
        ]
      },
      "id": "way/871673939"
    },
    {
      "type": "Feature",
      "properties": {
        "@id": "way/943852731",
        "building": "dormitory",
        "building:levels": "3",
        "roof:shape": "flat",
        "@geometry": "center"
      },
      "geometry": {
        "type": "Point",
        "coordinates": [
          8.5096935,
          49.4759399
        ]
      },
      "id": "way/943852731"
    },
    {
      "type": "Feature",
      "properties": {
        "@id": "way/943852732",
        "building": "dormitory",
        "building:levels": "3",
        "roof:shape": "flat",
        "@geometry": "center"
      },
      "geometry": {
        "type": "Point",
        "coordinates": [
          8.5094553,
          49.4757463
        ]
      },
      "id": "way/943852732"
    },
    {
      "type": "Feature",
      "properties": {
        "@id": "way/943852733",
        "building": "dormitory",
        "building:levels": "4",
        "roof:shape": "flat",
        "@geometry": "center"
      },
      "geometry": {
        "type": "Point",
        "coordinates": [
          8.5093329,
          49.4761991
        ]
      },
      "id": "way/943852733"
    },
    {
      "type": "Feature",
      "properties": {
        "@id": "way/943852734",
        "building": "dormitory",
        "building:levels": "4",
        "roof:shape": "flat",
        "@geometry": "center"
      },
      "geometry": {
        "type": "Point",
        "coordinates": [
          8.509031,
          49.4760692
        ]
      },
      "id": "way/943852734"
    },
    {
      "type": "Feature",
      "properties": {
        "@id": "way/943852735",
        "building": "dormitory",
        "building:levels": "3",
        "roof:shape": "flat",
        "@geometry": "center"
      },
      "geometry": {
        "type": "Point",
        "coordinates": [
          8.5086345,
          49.4761156
        ]
      },
      "id": "way/943852735"
    },
    {
      "type": "Feature",
      "properties": {
        "@id": "way/943852736",
        "building": "dormitory",
        "building:levels": "3",
        "roof:shape": "flat",
        "@geometry": "center"
      },
      "geometry": {
        "type": "Point",
        "coordinates": [
          8.5084393,
          49.4763429
        ]
      },
      "id": "way/943852736"
    },
    {
      "type": "Feature",
      "properties": {
        "@id": "way/943852737",
        "building": "dormitory",
        "building:levels": "4",
        "roof:shape": "flat",
        "@geometry": "center"
      },
      "geometry": {
        "type": "Point",
        "coordinates": [
          8.5080744,
          49.4759359
        ]
      },
      "id": "way/943852737"
    },
    {
      "type": "Feature",
      "properties": {
        "@id": "way/943852738",
        "building": "dormitory",
        "building:levels": "4",
        "roof:shape": "flat",
        "@geometry": "center"
      },
      "geometry": {
        "type": "Point",
        "coordinates": [
          8.5079031,
          49.4761587
        ]
      },
      "id": "way/943852738"
    },
    {
      "type": "Feature",
      "properties": {
        "@id": "way/1011261436",
        "building": "dormitory",
        "building:levels": "4",
        "name": "Roman-Nitsch-Haus",
        "roof:levels": "1",
        "@geometry": "center"
      },
      "geometry": {
        "type": "Point",
        "coordinates": [
          8.4839517,
          49.5240734
        ]
      },
      "id": "way/1011261436"
    },
    {
      "type": "Feature",
      "properties": {
        "@id": "way/1223583462",
        "addr:place": "E6",
        "building": "dormitory",
        "building:colour": "#eccfc7",
        "building:levels": "3",
        "roof:colour": "brown",
        "roof:levels": "1.5",
        "roof:shape": "hipped",
        "@geometry": "center"
      },
      "geometry": {
        "type": "Point",
        "coordinates": [
          8.4618239,
          49.4896302
        ]
      },
      "id": "way/1223583462"
    },
    {
      "type": "Feature",
      "properties": {
        "@id": "way/1274046141",
        "building": "dormitory",
        "@geometry": "center"
      },
      "geometry": {
        "type": "Point",
        "coordinates": [
          8.5383658,
          49.4108441
        ]
      },
      "id": "way/1274046141"
    },
    {
      "type": "Feature",
      "properties": {
        "@id": "way/1443816546",
        "addr:city": "Mannheim",
        "addr:housenumber": "14-15",
        "addr:place": "B6",
        "building": "dormitory",
        "building:levels": "6",
        "description": "200 hochschulnahen Bettplätzen für Studierende.\nDas Gebäude wurde in hybrider Holz-Modulbauweise als KfW-Energieeffizienzhaus nach dem Standard 40plus erstellt.",
        "operator": "Studierendenwerk Mannheim",
        "roof:levels": "0",
        "website": "https://www.stw-ma.de/wohnen/wohnhaeuser/b-6/",
        "@geometry": "center"
      },
      "geometry": {
        "type": "Point",
        "coordinates": [
          8.4589776,
          49.4880807
        ]
      },
      "id": "way/1443816546"
    },
    {
      "type": "Feature",
      "properties": {
        "@id": "way/1462146751",
        "building": "dormitory",
        "operator": "Studierendenwerk Mannheim",
        "roof:shape": "flat",
        "@geometry": "center"
      },
      "geometry": {
        "type": "Point",
        "coordinates": [
          8.4572239,
          49.4886944
        ]
      },
      "id": "way/1462146751"
    },
    {
      "type": "Feature",
      "properties": {
        "@id": "way/1462146752",
        "building": "dormitory",
        "building:levels": "3",
        "operator": "Studierendenwerk Mannheim",
        "roof:shape": "flat",
        "@geometry": "center"
      },
      "geometry": {
        "type": "Point",
        "coordinates": [
          8.4569145,
          49.4886449
        ]
      },
      "id": "way/1462146752"
    }
  ]
}