{
  "type": "FeatureCollection",
  "generator": "overpass-turbo",
  "copyright": "The data included in this document is from www.openstreetmap.org. The data is made available under ODbL.",
  "timestamp": "2026-06-07T09:30:16Z",
  "features": [
    {
      "type": "Feature",
      "properties": {
        "@id": "node/13354966",
        "name": "Esslingen (Neckar)",
        "operator": "DB InfraGO AG",
        "public_transport": "station",
        "railway": "station",
        "railway:ref": "TE",
        "railway:station_category": "3",
        "ref:IFOPT": "de:08116:7800",
        "ref:ibnr": "8001920",
        "ref:station": "1716",
        "uic_ref": "8029055",
        "wheelchair": "yes",
        "wheelchair:description": "Hilfe wird gebraucht, um in die Zügen einzusteigen",
        "wikidata": "Q439520",
        "wikipedia": "de:Bahnhof Esslingen (Neckar)"
      },
      "geometry": {
        "type": "Point",
        "coordinates": [
          9.3003518,
          48.7385898
        ]
      },
      "id": "node/13354966"
    },
    {
      "type": "Feature",
      "properties": {
        "@id": "node/21412509",
        "departures_board": "timetable",
        "internet_access": "no",
        "name": "Ladenburg",
        "operator": "DB InfraGO AG",
        "public_transport": "station",
        "railway": "station",
        "railway:ref": "RLD",
        "railway:station_category": "4",
        "ref:IFOPT": "de:08226:1711",
        "ref:ibnr": "8003489",
        "ref:station": "3490",
        "uic_ref": "8011332",
        "wheelchair": "yes",
        "wikidata": "Q22682010"
      },
      "geometry": {
        "type": "Point",
        "coordinates": [
          8.6030889,
          49.4745688
        ]
      },
      "id": "node/21412509"
    },
    {
      "type": "Feature",
      "properties": {
        "@id": "node/25242218",
        "check_date:wheelchair": "2024-09-28",
        "name": "Karlsruhe West",
        "note": "Die Bahnsteige liegen zwischen den Weichen der beiden Bahnhofsköpfe, so dass sie nicht RKWU 'Karsrihe West Hp' sein können.",
        "operator": "DB InfraGO AG",
        "public_transport": "station",
        "railway": "station",
        "railway:ref": "RKW",
        "railway:station_category": "6",
        "ref:IFOPT": "de:08212:6005",
        "ref:ibnr": "8003183",
        "ref:station": "3108",
        "uic_ref": "8014095",
        "wheelchair": "no",
        "wikidata": "Q11735895"
      },
      "geometry": {
        "type": "Point",
        "coordinates": [
          8.3628863,
          49.0023942
        ]
      },
      "id": "node/25242218"
    },
    {
      "type": "Feature",
      "properties": {
        "@id": "node/25439439",
        "iata": "MHG",
        "name": "Mannheim Hauptbahnhof",
        "name:fr": "Mannheim Gare Centrale",
        "network": "Verkehrsverbund Rhein-Neckar",
        "network:guid": "DE-BW-VRN",
        "network:short": "VRN",
        "network:wikidata": "Q1553051",
        "network:wikipedia": "de:Verkehrsverbund Rhein-Neckar",
        "note": "Adressdaten an Bahnhofsgebäude",
        "operator": "DB InfraGO AG",
        "public_transport": "station",
        "railway": "station",
        "railway:ref": "RM",
        "railway:ref:SBB": "MAN",
        "railway:station_category": "2",
        "ref:FR:sncf:resarail": "DEMHG",
        "ref:FR:uic8": "80140087",
        "ref:IFOPT": "de:08222:2417",
        "ref:ibnr": "8000244",
        "ref:station": "3925",
        "short_name": "Mannheim Hbf",
        "toilets:wheelchair": "yes",
        "train": "yes",
        "uic_ref": "8014008",
        "url": "https://www.bahnhof.de/mannheim-hbf",
        "wheelchair": "yes",
        "wikidata": "Q706994",
        "wikipedia": "de:Mannheim Hauptbahnhof"
      },
      "geometry": {
        "type": "Point",
        "coordinates": [
          8.4694107,
          49.4792363
        ]
      },
      "id": "node/25439439"
    },
    {
      "type": "Feature",
      "properties": {
        "@id": "node/27312362",
        "alt_name": "Flughafen/Messe",
        "departures_board": "realtime",
        "fee_zone": "2",
        "lines": "S2;S3",
        "name": "Stuttgart Flughafen/Messe",
        "name:note": "\"Stuttgart Flughafen/Messe\" ist die offizielle Stationsbezeichnung",
        "network": "Verkehrs- und Tarifverbund Stuttgart",
        "network:guid": "DE-BW-VVS",
        "network:short": "VVS",
        "network:wikidata": "Q2516108",
        "old_name": "Stuttgart Flughafen",
        "operator": "DB InfraGO AG",
        "public_transport": "station",
        "railway": "station",
        "railway:ref": "TFL",
        "railway:station_category": "4",
        "ref:IFOPT": "de:08116:2103",
        "ref:ibnr": "8005768",
        "ref:station": "1824",
        "short_name": "Flughafen Stg",
        "toilets:wheelchair": "no",
        "train": "yes",
        "uic_ref": "8029725",
        "wheelchair": "yes",
        "wheelchair:description": "Im UG. Aufzüge sind vorhanden.",
        "wikidata": "Q801485",
        "wikipedia": "de:Bahnhof Stuttgart Flughafen/Messe"
      },
      "geometry": {
        "type": "Point",
        "coordinates": [
          9.1926989,
          48.6904461
        ]
      },
      "id": "node/27312362"
    },
    {
      "type": "Feature",
      "properties": {
        "@id": "node/29542815",
        "name": "Maximiliansau Im Rüsten",
        "operator": "DB InfraGO AG",
        "public_transport": "station",
        "railway": "halt",
        "railway:position": "51.480",
        "railway:ref": "RMAI",
        "railway:station_category": "7",
        "ref:IFOPT": "de:7334:1724:1",
        "uic_name": "Maximiliansau-Im Rüsten",
        "uic_ref": "8003911",
        "wheelchair": "yes",
        "wikidata": "Q17709042"
      },
      "geometry": {
        "type": "Point",
        "coordinates": [
          8.2795954,
          49.0349146
        ]
      },
      "id": "node/29542815"
    },
    {
      "type": "Feature",
      "properties": {
        "@id": "node/60459785",
        "name": "Mannheim-Waldhof",
        "network": "Verkehrsverbund Rhein-Neckar",
        "network:guid": "DE-BW-VRN",
        "network:short": "VRN",
        "network:wikidata": "Q1553051",
        "network:wikipedia": "de:Verkehrsverbund Rhein-Neckar",
        "operator": "DB InfraGO AG",
        "public_transport": "station",
        "railway": "station",
        "railway:ref": "RMW",
        "railway:station_category": "4",
        "ref:IFOPT": "de:08222:2615",
        "ref:ibnr": "8003848",
        "ref:station": "3936",
        "start_date": "1879-10",
        "uic_ref": "8014003",
        "wheelchair": "no",
        "wikidata": "Q47004109"
      },
      "geometry": {
        "type": "Point",
        "coordinates": [
          8.4825676,
          49.5261774
        ]
      },
      "id": "node/60459785"
    },
    {
      "type": "Feature",
      "properties": {
        "@id": "node/75655504",
        "name": "Forchheim (b Karlsruhe)",
        "network": "Karlsruher Verkehrsverbund",
        "note": "Schreibweise im uic_name (unschön...) lt. Verzeichnis – bitte nicht ändern. Stationsschilder sind mit \"Forchheim\" ohne Zusatz beschriftet!",
        "official_name": "Forchheim (bei Karlsruhe)",
        "operator": "DB InfraGO AG",
        "public_transport": "station",
        "railway": "station",
        "railway:ref": "RFM",
        "railway:station_category": "6",
        "ref:IFOPT": "de:08215:1818",
        "ref:ibnr": "8002023",
        "ref:station": "1829",
        "ticket_vending": "no",
        "uic_name": "Forchheim(b Karlsruhe)",
        "uic_ref": "8014234",
        "wheelchair": "limited",
        "wikidata": "Q20170857",
        "wikipedia": "de:Bahnhof Forchheim (b Karlsruhe)"
      },
      "geometry": {
        "type": "Point",
        "coordinates": [
          8.3387483,
          48.964715
        ]
      },
      "id": "node/75655504"
    },
    {
      "type": "Feature",
      "properties": {
        "@id": "node/103011354",
        "exit": "right",
        "fee_zone": "2",
        "name": "Leinfelden",
        "network": "VVS",
        "operator": "DB InfraGO AG",
        "public_transport": "station",
        "railway": "halt",
        "railway:ref": "TLF",
        "railway:station_category": "4",
        "ref:IFOPT": "de:08116:175",
        "ref:ibnr": "8003622",
        "ref:station": "3626",
        "train": "yes",
        "uic_ref": "8029369",
        "wheelchair": "yes",
        "wikidata": "Q195824",
        "wikipedia": "de:Bahnhof Leinfelden"
      },
      "geometry": {
        "type": "Point",
        "coordinates": [
          9.1427508,
          48.6966965
        ]
      },
      "id": "node/103011354"
    },
    {
      "type": "Feature",
      "properties": {
        "@id": "node/117367378",
        "name": "Wörth (Rhein)",
        "network": "Karlsruher Verkehrsverbund",
        "operator": "DB InfraGO AG",
        "public_transport": "station",
        "railway": "station",
        "railway:ref": "RWRT",
        "railway:station_category": "4",
        "train": "yes",
        "uic_name": "Wörth (Rhein)",
        "uic_ref": "8000254",
        "wheelchair": "yes",
        "wikidata": "Q15107313",
        "wikipedia": "de:Bahnhof Wörth (Rhein)"
      },
      "geometry": {
        "type": "Point",
        "coordinates": [
          8.2731506,
          49.0456919
        ]
      },
      "id": "node/117367378"
    },
    {
      "type": "Feature",
      "properties": {
        "@id": "node/149285759",
        "departures_board": "realtime",
        "departures_board:speech_output": "yes",
        "fee_zone": "2",
        "layer": "-2",
        "level": "-2",
        "name": "Filderstadt",
        "network": "Verkehrs- und Tarifverbund Stuttgart",
        "network:guid": "DE-BW-VVS",
        "network:short": "VVS",
        "network:wikidata": "Q2516108",
        "operator": "DB InfraGO AG",
        "public_transport": "station",
        "railway": "station",
        "railway:ref": "TFIL",
        "railway:station_category": "5",
        "ref:IFOPT": "de:08116:1905",
        "ref:ibnr": "8001984",
        "ref:station": "3022",
        "start_date": "2001",
        "train": "yes",
        "uic_ref": "8064619",
        "wheelchair": "yes",
        "wikidata": "Q800750",
        "wikipedia": "de:Bahnhof Filderstadt"
      },
      "geometry": {
        "type": "Point",
        "coordinates": [
          9.2177498,
          48.6764343
        ]
      },
      "id": "node/149285759"
    },
    {
      "type": "Feature",
      "properties": {
        "@id": "node/243771569",
        "fee_zone": "2",
        "name": "Echterdingen",
        "network": "VVS",
        "operator": "DB InfraGO AG",
        "public_transport": "station",
        "railway": "halt",
        "railway:ref": "TETD",
        "railway:station_category": "4",
        "ref:IFOPT": "de:08116:7003",
        "ref:ibnr": "8001650",
        "ref:station": "1451",
        "toilets:wheelchair": "no",
        "train": "yes",
        "uic_ref": "8029724",
        "wheelchair": "limited",
        "wikidata": "Q199275",
        "wikimedia_commons": "File:Echterdingen S-Bahn Bahnhof .jpg",
        "wikipedia": "de:Bahnhof Echterdingen"
      },
      "geometry": {
        "type": "Point",
        "coordinates": [
          9.1693145,
          48.6921433
        ]
      },
      "id": "node/243771569"
    },
    {
      "type": "Feature",
      "properties": {
        "@id": "node/248909838",
        "alt_name": "Stuttgart-Untertürkheim Personenbahnhof",
        "fee_zone": "1",
        "name": "Stuttgart-Untertürkheim",
        "network": "Verkehrs- und Tarifverbund Stuttgart",
        "note": "\"Stuttgart-Untertürkheim\" ist die im offizielle Bahnhofsbezeichnung, wie sie beispielsweise auch in Fahrplänen steht; die \"amtliche\" Betriebsstellenbezeichnung ist \"Stuttgart-Untertürkheim Pbf\" (ein Bahnhofsteil des Bahnhofs Untertürkheim)",
        "official_name": "Stuttgart-Untertürkheim Pbf",
        "operator": "DB InfraGO AG",
        "public_transport": "station",
        "railway": "station",
        "railway:ref": "TSU P",
        "railway:station_category": "3",
        "ref:IFOPT": "de:08111:6085",
        "ref:ibnr": "8005775",
        "ref:station": "6086",
        "short_name": "Stg-Utürkhm Pbf",
        "train": "yes",
        "uic_ref": "8029045",
        "wheelchair": "limited",
        "wikidata": "Q801479"
      },
      "geometry": {
        "type": "Point",
        "coordinates": [
          9.2504725,
          48.7798209
        ]
      },
      "id": "node/248909838"
    },
    {
      "type": "Feature",
      "properties": {
        "@id": "node/259132917",
        "name": "Ludwigshafen-Mundenheim",
        "old_name": "Mundenheim Hbf",
        "operator": "DB InfraGO AG",
        "public_transport": "station",
        "railway": "station",
        "railway:position": "103.171;0.000",
        "railway:ref": "RLUM",
        "railway:ref:parent": "RL",
        "railway:station_category": "5",
        "uic_ref": "8003765",
        "wheelchair": "yes",
        "wikidata": "Q17521470",
        "wikipedia": "de:Bahnhof Ludwigshafen-Mundenheim"
      },
      "geometry": {
        "type": "Point",
        "coordinates": [
          8.4208339,
          49.4612724
        ]
      },
      "id": "node/259132917"
    },
    {
      "type": "Feature",
      "properties": {
        "@id": "node/263259559",
        "alt_name": "Obertürkheim",
        "name": "Stuttgart-Obertürkheim",
        "note": "\"Stuttgart-Obertürkheim\" ist die offizielle Bahnhofsbezeichnung",
        "operator": "DB InfraGO AG",
        "public_transport": "station",
        "rail": "yes",
        "railway": "station",
        "railway:ref": "TSOM",
        "railway:station_category": "4",
        "ref:IFOPT": "de:08111:6091",
        "ref:ibnr": "8005772",
        "ref:station": "6081",
        "short_name": "Stg-Obertürkheim",
        "uic_ref": "8029052",
        "wheelchair": "yes",
        "wikidata": "Q801476"
      },
      "geometry": {
        "type": "Point",
        "coordinates": [
          9.2681173,
          48.7617575
        ]
      },
      "id": "node/263259559"
    },
    {
      "type": "Feature",
      "properties": {
        "@id": "node/263346985",
        "alt_name": "Stuttgart Nord",
        "name": "Stuttgart Nordbahnhof",
        "note": "\"Stuttgart Nordbahnhof\" die offizielle Betriebsstellenbezeichnung (siehe https://data.deutschebahn.com/dataset/data-betriebsstellen.html), \"Nordbahnhof\" offizielle Kurzbezeichnung und laut örtlichen Schildern; vereinzelt auch \"Stuttgart Nord\" noch genutzt",
        "operator": "DB InfraGO AG",
        "public_transport": "station",
        "railway": "halt",
        "railway:ref": "TSN",
        "railway:station_category": "5",
        "ref:IFOPT": "de:08111:6295",
        "ref:ibnr": "8005767",
        "ref:station": "6073",
        "short_name": "Nordbahnhof",
        "toilets:wheelchair": "no",
        "uic_ref": "8029033",
        "wheelchair": "limited",
        "wikidata": "Q538138",
        "wikipedia": "de:Bahnhof Stuttgart Nord"
      },
      "geometry": {
        "type": "Point",
        "coordinates": [
          9.188064,
          48.80373
        ]
      },
      "id": "node/263346985"
    },
    {
      "type": "Feature",
      "properties": {
        "@id": "node/269735124",
        "check_date:wheelchair": "2024-06-24",
        "name": "Karlsruhe-Knielingen",
        "operator": "DB InfraGO AG",
        "public_transport": "station",
        "railway": "station",
        "railway:ref": "RKIN",
        "railway:station_category": "5",
        "ref:IFOPT": "de:08212:32586",
        "ref:ibnr": "8003186",
        "ref:station": "3111",
        "uic_ref": "8014081",
        "wheelchair": "limited",
        "wikidata": "Q116017410"
      },
      "geometry": {
        "type": "Point",
        "coordinates": [
          8.3411955,
          49.0266524
        ]
      },
      "id": "node/269735124"
    },
    {
      "type": "Feature",
      "properties": {
        "@id": "node/278553741",
        "alt_name": "Stuttgart Hbf (S-Bahn)",
        "level": "-3",
        "name": "Stuttgart Hauptbahnhof (tief)",
        "note": "\"Stuttgart Hbf tief\" ist die offizielle Betriebsstellenbezeichnung",
        "note:alt_name": "\"Stuttgart Hbf (S-Bahn)\" (Kürzel TSB) ist die Bezeichnung des mit Inbetriebnahme von Stuttgart 21 geplanten neuen Bahnhofsteils der S-Bahn-Stammstrecke",
        "official_name": "Stuttgart Hbf tief",
        "operator": "DB InfraGO AG",
        "public_transport": "station",
        "rail": "yes",
        "railway": "station",
        "railway:ref": "TS T",
        "ref:IFOPT": "de:08111:6118",
        "ref:ibnr": "8098096",
        "ref:station": "6071",
        "short_name": "Stg Hbf tief",
        "toilets:wheelchair": "no",
        "uic_ref": "8029376",
        "wheelchair": "yes",
        "wikidata": "Q112258959"
      },
      "geometry": {
        "type": "Point",
        "coordinates": [
          9.1799271,
          48.7830723
        ]
      },
      "id": "node/278553741"
    },
    {
      "type": "Feature",
      "properties": {
        "@id": "node/279987129",
        "name": "Stuttgart-Zazenhausen",
        "operator": "DB InfraGO AG",
        "public_transport": "station",
        "railway": "halt",
        "railway:ref": "TSZA",
        "railway:station_category": "7",
        "ref:IFOPT": "de:08111:1200",
        "ref:ibnr": "8005777",
        "ref:station": "6089",
        "train": "yes",
        "uic_ref": "8029027"
      },
      "geometry": {
        "type": "Point",
        "coordinates": [
          9.1995088,
          48.8360504
        ]
      },
      "id": "node/279987129"
    },
    {
      "type": "Feature",
      "properties": {
        "@id": "node/303467028",
        "alt_name": "Feuerbach",
        "name": "Stuttgart-Feuerbach",
        "note": "Einfach \"Feuerbach\" laut örtlichen Schildern; betrieblich seit Dezember 2025: Stuttgart-Feuerbach S-Bahn",
        "operator": "DB InfraGO AG",
        "public_transport": "station",
        "railway": "halt",
        "railway:ref": "TSFE",
        "railway:station_category": "4",
        "ref:IFOPT": "de:08111:6157",
        "ref:ibnr": "8005770",
        "ref:station": "6078",
        "short_name": "Feuerbach S-Bahn",
        "toilets:wheelchair": "no",
        "train": "yes",
        "uic_ref": "8029031",
        "wheelchair": "limited",
        "wikidata": "Q801471",
        "wikipedia": "de:Bahnhof Stuttgart-Feuerbach"
      },
      "geometry": {
        "type": "Point",
        "coordinates": [
          9.1693064,
          48.813504
        ]
      },
      "id": "node/303467028"
    },
    {
      "type": "Feature",
      "properties": {
        "@id": "node/304359311",
        "alt_name": "Stuttgart-Weilimdorf",
        "fee_zone": "1;2",
        "name": "Weilimdorf",
        "network": "VVS",
        "note": "\"Stuttgart-Weilimdorf\" ist die offizielle Betriebsstellenbezeichnung",
        "operator": "DB InfraGO AG",
        "public_transport": "station",
        "railway": "halt",
        "railway:ref": "TSWF",
        "railway:station_category": "5",
        "ref:IFOPT": "de:08111:2270",
        "ref:ibnr": "8006268",
        "ref:station": "6088",
        "uic_ref": "8029384",
        "wikidata": "Q801482"
      },
      "geometry": {
        "type": "Point",
        "coordinates": [
          9.0944331,
          48.822086
        ]
      },
      "id": "node/304359311"
    },
    {
      "type": "Feature",
      "properties": {
        "@id": "node/304367932",
        "fee_zone": "1;2",
        "name": "Korntal",
        "network": "Verkehrs- und Tarifverbund Stuttgart",
        "network:guid": "DE-BW-VVS",
        "network:short": "VVS",
        "network:wikidata": "Q2516108",
        "operator": "DB InfraGO AG",
        "public_transport": "station",
        "railway": "station",
        "railway:ref": "TKO",
        "railway:station_category": "4",
        "ref:IFOPT": "de:08118:7603",
        "ref:ibnr": "8003409",
        "ref:station": "3377",
        "station": "train",
        "train": "yes",
        "uic_ref": "8029441",
        "wheelchair": "yes",
        "wikidata": "Q801028"
      },
      "geometry": {
        "type": "Point",
        "coordinates": [
          9.1214162,
          48.8265137
        ]
      },
      "id": "node/304367932"
    },
    {
      "type": "Feature",
      "properties": {
        "@id": "node/997756196",
        "name": "Esslingen-Mettingen",
        "note": "\"Esslingen-Mettingen\" ist die offizielle Betriebsstellenbezeichnung",
        "operator": "DB InfraGO AG",
        "public_transport": "station",
        "railway": "halt",
        "railway:ref": "TEME",
        "railway:station_category": "3",
        "ref:IFOPT": "de:08116:1801",
        "ref:ibnr": "8001921",
        "ref:station": "1717",
        "train": "yes",
        "uic_ref": "8029053",
        "wheelchair": "limited",
        "wheelchair:description": "nur Gleis 3+4 mit Rollstuhl erreichbar"
      },
      "geometry": {
        "type": "Point",
        "coordinates": [
          9.2756947,
          48.7472159
        ]
      },
      "id": "node/997756196"
    },
    {
      "type": "Feature",
      "properties": {
        "@id": "node/1635698272",
        "TMC:cid_58:tabcd_1:Class": "Area",
        "TMC:cid_58:tabcd_1:LCLversion": "9.00",
        "TMC:cid_58:tabcd_1:LocationCode": "26329",
        "addr:city": "Stuttgart",
        "addr:housenumber": "2",
        "addr:postcode": "70173",
        "addr:street": "Arnulf-Klett-Platz",
        "departures_board": "realtime",
        "departures_board:speech_output": "no",
        "iata": "ZWS",
        "internet_access": "wlan",
        "internet_access:fee": "no",
        "name": "Stuttgart Hauptbahnhof",
        "name:de": "Stuttgart Hauptbahnhof",
        "name:en": "Stuttgart Main Station",
        "name:fr": "Stuttgart Gare Centrale",
        "network": "Verkehrs- und Tarifverbund Stuttgart",
        "note:iata": "Den IATA-Code hat der Bahnhof wegen des AIRail-Verkehrsangebots.",
        "note:name": "\"Stuttgart Hbf (oben)\" ist die 'bahnamtliche' Betriebsstellenbezeichnung",
        "official_name": "Stuttgart Hbf (oben)",
        "operator": "DB InfraGO AG",
        "public_transport": "station",
        "railway": "station",
        "railway:ref": "TS",
        "railway:station_category": "1",
        "ref:FR:sncf:resarail": "DESGT",
        "ref:FR:uic8": "80290346",
        "ref:IFOPT": "de:08111:6115",
        "ref:ibnr": "8000096",
        "ref:station": "6071",
        "short_name": "Stuttgart Hbf",
        "stop_date": "2025-12",
        "toilets:wheelchair": "yes",
        "train": "yes",
        "uic_ref": "8029034",
        "url": "https://www.bahnhof.de/stuttgart-hbf",
        "vehicles": "train",
        "website": "https://www.einkaufsbahnhof.de/stuttgart-hauptbahnhof/",
        "wheelchair": "limited",
        "wikidata": "Q613766",
        "wikipedia": "de:Stuttgart Hauptbahnhof"
      },
      "geometry": {
        "type": "Point",
        "coordinates": [
          9.1833959,
          48.7856099
        ]
      },
      "id": "node/1635698272"
    },
    {
      "type": "Feature",
      "properties": {
        "@id": "node/2417382807",
        "name": "Ettlingen West",
        "network": "Karlsruher Verkehrsverbund",
        "operator": "DB InfraGO AG",
        "public_transport": "station",
        "railway": "station",
        "railway:ref": "RETL",
        "railway:station_category": "5",
        "ref:IFOPT": "de:08215:1840",
        "ref:ibnr": "8001926",
        "ref:station": "1725",
        "uic_ref": "8014238",
        "wheelchair": "limited",
        "wikidata": "Q116016556"
      },
      "geometry": {
        "type": "Point",
        "coordinates": [
          8.3878674,
          48.9471361
        ]
      },
      "id": "node/2417382807"
    },
    {
      "type": "Feature",
      "properties": {
        "@id": "node/2432321160",
        "alt_name": "Schwabstraße",
        "name": "Stuttgart Schwabstraße",
        "note": "\"Stuttgart Schwabstraße\" ist die offizielle Betriebsstellenbezeichnung",
        "operator": "DB InfraGO AG",
        "public_transport": "station",
        "rail": "yes",
        "railway": "station",
        "railway:position": "2.472",
        "railway:ref": "TSS",
        "railway:station_category": "3",
        "ref:IFOPT": "de:08111:6052",
        "ref:ibnr": "8006698",
        "ref:station": "6083",
        "short_name": "Stg Schwabstraße",
        "train": "yes",
        "uic_ref": "8029373",
        "wheelchair": "no",
        "wikidata": "Q801490",
        "wikipedia": "de:Bahnhof Stuttgart Schwabstraße"
      },
      "geometry": {
        "type": "Point",
        "coordinates": [
          9.1569698,
          48.7702483
        ]
      },
      "id": "node/2432321160"
    },
    {
      "type": "Feature",
      "properties": {
        "@id": "node/2516586346",
        "name": "Oberesslingen",
        "note": "Da keine Weichen vorhanden sind, ist das kein Bahnhof, sondern nur ein Haltepunkt!",
        "operator": "DB InfraGO AG",
        "public_transport": "station",
        "railway": "halt",
        "railway:ref": "TOES",
        "railway:station_category": "3",
        "ref:IFOPT": "de:08116:1802",
        "ref:ibnr": "8004528",
        "ref:station": "4638",
        "uic_ref": "8029056",
        "wheelchair": "limited",
        "wheelchair:description": "Es gibt einen Aufzug zur S-Bahn. Der Aufzug ist aber nur direkt vom Parkplatz aus (mit recht hohem Bordstein, nicht E-Rolli-tauglich) erreichbar. Alternativ muss man eine 4-spurige Straße ohne Überweg queren. Alles andere ist mit Treppen erreichbar."
      },
      "geometry": {
        "type": "Point",
        "coordinates": [
          9.3270958,
          48.7299583
        ]
      },
      "id": "node/2516586346"
    },
    {
      "type": "Feature",
      "properties": {
        "@id": "node/2521443817",
        "departures_board": "realtime",
        "departures_board:speech_output": "no",
        "name": "Stuttgart-Vaihingen",
        "note": "\"Stuttgart-Vaihingen\" ist die offizielle Betriebsstellenbezeichnung",
        "operator": "DB InfraGO AG",
        "public_transport": "station",
        "railway": "station",
        "railway:ref": "TSV",
        "railway:station_category": "3",
        "ref:IFOPT": "de:08111:6002",
        "ref:ibnr": "8005776",
        "ref:station": "6087",
        "toilets:wheelchair": "no",
        "train": "yes",
        "uic_ref": "8029367",
        "wheelchair": "yes",
        "wikidata": "Q801478",
        "wikipedia": "de:Bahnhof Stuttgart-Vaihingen"
      },
      "geometry": {
        "type": "Point",
        "coordinates": [
          9.1131764,
          48.7264626
        ]
      },
      "id": "node/2521443817"
    },
    {
      "type": "Feature",
      "properties": {
        "@id": "node/2574283615",
        "iata": "KJR",
        "iata:note": "AIRail Flughafen",
        "internet_access": "wlan",
        "internet_access:fee": "no",
        "internet_access:fee:description": "30min kostenlos",
        "internet_access:operator": "Deutsche Telekom AG",
        "internet_access:ssid": "Telekom",
        "max_level": "1",
        "min_level": "-1",
        "name": "Karlsruhe Hauptbahnhof",
        "name:fr": "Karlsruhe Gare Centrale",
        "operator": "DB InfraGO AG",
        "platforms": "7",
        "public_transport": "station",
        "railway": "station",
        "railway:ref": "RK",
        "railway:station_category": "1",
        "ref:FR:sncf:resarail": "DEQKA",
        "ref:FR:uic8": "80142281",
        "ref:IFOPT": "de:08212:90",
        "ref:ibnr": "8000191",
        "ref:station": "3107",
        "short_name": "Karlsruhe Hbf",
        "uic_ref": "8014228",
        "website": "https://www.bahnhof.de/bahnhof-de/bahnhof/Karlsruhe-Hbf-1019530",
        "wheelchair": "yes",
        "wikidata": "Q688541",
        "wikipedia": "de:Karlsruhe Hauptbahnhof"
      },
      "geometry": {
        "type": "Point",
        "coordinates": [
          8.4020518,
          48.9936164
        ]
      },
      "id": "node/2574283615"
    },
    {
      "type": "Feature",
      "properties": {
        "@id": "node/2661524407",
        "departures_board": "no",
        "fee_zone": "1",
        "name": "Stuttgart-Zuffenhausen",
        "network": "Verkehrs- und Tarifverbund Stuttgart",
        "network:guid": "DE-BW-VVS",
        "network:short": "VVS",
        "network:wikidata": "Q2516108",
        "note": "\"Stuttgart-Zuffenhausen\" ist die offizielle und auch die in den Fahrplanmedien genannte Betriebsstellenbezeichnung",
        "operator": "DB InfraGO AG",
        "public_transport": "station",
        "railway": "station",
        "railway:ref": "TSZ",
        "railway:station_category": "3",
        "ref:IFOPT": "de:08111:6465",
        "ref:ibnr": "8005778",
        "ref:station": "6090",
        "toilets:wheelchair": "no",
        "train": "yes",
        "uic_ref": "8029038",
        "wheelchair": "limited",
        "wikidata": "Q801481",
        "wikipedia": "de:Bahnhof Stuttgart-Zuffenhausen"
      },
      "geometry": {
        "type": "Point",
        "coordinates": [
          9.16721,
          48.8295258
        ]
      },
      "id": "node/2661524407"
    },
    {
      "type": "Feature",
      "properties": {
        "@id": "node/2827402189",
        "addr:city": "Karlsruhe",
        "addr:housenumber": "73",
        "addr:postcode": "76139",
        "addr:street": "Karlsruher Straße",
        "name": "Karlsruhe Hagsfeld",
        "network": "Karlsruher Verkehrsverbund",
        "network:short": "KVV",
        "network:wikidata": "Q1733986",
        "note:name": "steht vor Ort ohne Bindestrich auf dem Bahnhofsschild",
        "operator": "DB InfraGO AG",
        "operator:wikidata": "Q122870674",
        "operator:wikipedia": "de:DB InfraGO",
        "public_transport": "station",
        "railway": "station",
        "railway:ref": "RKHA",
        "railway:station_category": "5",
        "ref:IFOPT": "de:08212:3102",
        "ref:ibnr": "8003185",
        "ref:station": "3110",
        "short_name": "Hagsfeld",
        "train": "yes",
        "uic_name": "Karlsruhe-Hagsfeld",
        "uic_ref": "8007281",
        "wheelchair": "yes",
        "wheelchair:description": "Zugang zum Bahnsteig barrierefrei über Rampen, bzw. Aufug. Alle Züge, die den Bahnhof anfahren, haben aber Stufen im Türbereich. Diese kann mit einer vom Lokführer bedienten Überfahrhilfe überbrückt werden.",
        "wikidata": "Q64494822",
        "wikipedia": "en:Karlsruhe-Hagsfeld station"
      },
      "geometry": {
        "type": "Point",
        "coordinates": [
          8.4537121,
          49.0262453
        ]
      },
      "id": "node/2827402189"
    },
    {
      "type": "Feature",
      "properties": {
        "@id": "node/2827470327",
        "name": "Blankenloch",
        "network": "Karlsruher Verkehrsverbund",
        "on_demand": "no",
        "operator": "DB InfraGO AG",
        "operator:wikidata": "Q122870674",
        "operator:wikipedia": "de:DB InfraGO",
        "public_transport": "station",
        "railway": "station",
        "railway:ref": "RBAN",
        "railway:station_category": "5",
        "ref:IFOPT": "de:08215:32239",
        "ref:ibnr": "8001009",
        "ref:station": "692",
        "request_stop": "yes",
        "uic_ref": "8014070",
        "wheelchair": "yes",
        "wheelchair:description": "Gleis 1 ist über eine Rampe erreichbar. Barrierefreier Zugang zu den Gleisen 2 und 3 über Aufzug möglich. Alle Züge, die den Bahnhof anfahren, haben aber Stufen im Türbereich."
      },
      "geometry": {
        "type": "Point",
        "coordinates": [
          8.4647709,
          49.0668996
        ]
      },
      "id": "node/2827470327"
    },
    {
      "type": "Feature",
      "properties": {
        "@id": "node/2950551727",
        "name": "Mannheim-Neckarau",
        "network": "Verkehrsverbund Rhein-Neckar",
        "network:guid": "DE-BW-VRN",
        "network:short": "VRN",
        "network:wikidata": "Q1553051",
        "network:wikipedia": "de:Verkehrsverbund Rhein-Neckar",
        "operator": "DB InfraGO AG",
        "public_transport": "station",
        "railway": "halt",
        "railway:ref": "RMN",
        "railway:ref:count": "1/2",
        "railway:station_category": "4",
        "ref:IFOPT": "de:08222:2481",
        "ref:ibnr": "8003844",
        "ref:station": "3932",
        "uic_ref": "8014048",
        "wheelchair": "limited"
      },
      "geometry": {
        "type": "Point",
        "coordinates": [
          8.4946502,
          49.4557572
        ]
      },
      "id": "node/2950551727"
    },
    {
      "type": "Feature",
      "properties": {
        "@id": "node/2958859136",
        "check_date:wheelchair": "2024-04-11",
        "ele": "116",
        "name": "Karlsruhe-Durlach",
        "name:AVG": "Karlsruhe-Durlach Bahnhof",
        "network": "Karlsruher Verkehrsverbund",
        "operator": "DB InfraGO AG",
        "operator:wikidata": "Q122870674",
        "operator:wikipedia": "de:DB InfraGO",
        "public_transport": "station",
        "railway": "station",
        "railway:ref": "RKDU",
        "railway:station_category": "3",
        "ref:IFOPT": "de:08212:801",
        "ref:ibnr": "8003184",
        "ref:station": "3109",
        "short_name:AVG": "Karlsruhe-Durlach Bf",
        "source:ele": "Schild am Empfangsgebäude",
        "start_date": "1911",
        "uic_ref": "8014043",
        "wheelchair": "limited",
        "wheelchair:description": "Die Linien S4 , S5 und S6 (Gleise 10,11 und 12) sind nicht barrierefrei zu erreichen, Die Trams sind nach Bauart nicht alle barrierefrei. Manche sind ebenerdig, andere habe Stufen im Einsteigbereich.",
        "wikidata": "Q442305",
        "wikipedia": "de:Bahnhof Karlsruhe-Durlach"
      },
      "geometry": {
        "type": "Point",
        "coordinates": [
          8.4622543,
          49.0020956
        ]
      },
      "id": "node/2958859136"
    },
    {
      "type": "Feature",
      "properties": {
        "@id": "node/3027565242",
        "alt_name": "Feuersee",
        "fee_zone": "1",
        "name": "Stuttgart Feuersee",
        "network": "VVS",
        "note": "\"Stuttgart Feuersee\" ist die offizielle Betriebsstellenbezeichnung; aufgrund fehlender Weichen im Stationsbereich Haltepunkt (railway=halt) statt Bahnhof (railway=station)",
        "operator": "DB InfraGO AG",
        "public_transport": "station",
        "railway": "halt",
        "railway:ref": "TSFS",
        "railway:station_category": "3",
        "ref:IFOPT": "de:08111:6221",
        "ref:ibnr": "8006699",
        "ref:station": "6079",
        "short_name": "Stg Feuersee",
        "train": "yes",
        "uic_ref": "8029374",
        "wheelchair": "no"
      },
      "geometry": {
        "type": "Point",
        "coordinates": [
          9.1659138,
          48.7726044
        ]
      },
      "id": "node/3027565242"
    },
    {
      "type": "Feature",
      "properties": {
        "@id": "node/3034741424",
        "name": "Stuttgart Universität",
        "network": "Verkehrs- und Tarifverbund Stuttgart",
        "network:guid": "DE-BW-VVS",
        "network:short": "VVS",
        "network:wikidata": "Q2516108",
        "note": "\"Stuttgart Universität\" (ohne Bindestrich) ist die offizielle Betriebsstellenbezeichnung",
        "operator": "DB InfraGO AG",
        "public_transport": "station",
        "railway": "halt",
        "railway:ref": "TSUN",
        "railway:station_category": "4",
        "ref:IFOPT": "de:08111:6008",
        "ref:ibnr": "8006513",
        "ref:station": "6076",
        "train": "yes",
        "uic_ref": "8029723",
        "wikidata": "Q801491"
      },
      "geometry": {
        "type": "Point",
        "coordinates": [
          9.105765,
          48.7452713
        ]
      },
      "id": "node/3034741424"
    },
    {
      "type": "Feature",
      "properties": {
        "@id": "node/3034811520",
        "alt_name": "Österfeld",
        "name": "Stuttgart Österfeld",
        "network": "Verkehrs- und Tarifverbund Stuttgart",
        "note": "\"Stuttgart Österfeld\" (ohne Bindestrich) ist die offizielle Betriebsstellenbezeichnung",
        "operator": "DB InfraGO AG",
        "public_transport": "station",
        "railway": "station",
        "railway:ref": "TSOS",
        "railway:station_category": "4",
        "ref:IFOPT": "de:08111:6027",
        "ref:ibnr": "8005779",
        "ref:station": "6075",
        "short_name": "Stg Österfeld",
        "uic_ref": "8029044",
        "wheelchair": "yes",
        "wikidata": "Q801483"
      },
      "geometry": {
        "type": "Point",
        "coordinates": [
          9.1167264,
          48.7375038
        ]
      },
      "id": "node/3034811520"
    },
    {
      "type": "Feature",
      "properties": {
        "@id": "node/3043128922",
        "name": "Stuttgart Neuwirtshaus (Porscheplatz)",
        "operator": "DB InfraGO AG",
        "public_transport": "station",
        "railway": "halt",
        "railway:ref": "TNW",
        "railway:station_category": "4",
        "ref:IFOPT": "de:08111:1403",
        "ref:ibnr": "8004338",
        "ref:station": "4467",
        "short_name": "Neuwirtshaus",
        "toilets:wheelchair": "no",
        "uic_ref": "8029440",
        "wheelchair": "yes",
        "wikidata": "Q801486"
      },
      "geometry": {
        "type": "Point",
        "coordinates": [
          9.1522098,
          48.8338388
        ]
      },
      "id": "node/3043128922"
    },
    {
      "type": "Feature",
      "properties": {
        "@id": "node/3043348659",
        "check_date:wheelchair": "2023-05-11",
        "departures_board": "realtime",
        "departures_board:speech_output": "no",
        "exit": "left",
        "fee_zone": "1;2",
        "name": "Stuttgart-Rohr",
        "name:note": "Die offizielle Betriebsstellenbezeichnung lautet \"Stuttgart-Rohr\"",
        "network": "VVS",
        "note": "betrieblich ist Stuttgart-Rohr ein Bahnhofsteil des Bahnhof Stuttgart-Vaihingen; aufgrund von Weichen im Stationsbereich kann die Station wohl als Bahnhof gelten",
        "operator": "DB InfraGO AG",
        "public_transport": "station",
        "railway": "station",
        "railway:ref": "TSRO",
        "railway:station_category": "4",
        "ref:IFOPT": "de:08111:6001",
        "ref:ibnr": "8005773",
        "ref:station": "6082",
        "short_name": "Stuttgart-Rohr",
        "train": "yes",
        "uic_ref": "8029381",
        "wheelchair": "yes",
        "wikidata": "Q801477",
        "wikipedia": "de:Bahnhof Stuttgart-Rohr"
      },
      "geometry": {
        "type": "Point",
        "coordinates": [
          9.1084072,
          48.7177263
        ]
      },
      "id": "node/3043348659"
    },
    {
      "type": "Feature",
      "properties": {
        "@id": "node/3043366695",
        "name": "Oberaichen",
        "note": "Aufgrund fehlender Weichen im Stationsberich offenbar Haltepunkt (railway=halt) statt Bahnhof (railway=station)",
        "operator": "DB InfraGO AG",
        "public_transport": "station",
        "railway": "halt",
        "railway:ref": "TOAI",
        "railway:station_category": "5",
        "ref:IFOPT": "de:08116:2105",
        "ref:ibnr": "8004496",
        "ref:station": "4617",
        "uic_ref": "8029789",
        "wheelchair": "yes",
        "wikidata": "Q169481"
      },
      "geometry": {
        "type": "Point",
        "coordinates": [
          9.1272836,
          48.7052607
        ]
      },
      "id": "node/3043366695"
    },
    {
      "type": "Feature",
      "properties": {
        "@id": "node/3043452988",
        "name": "Bad Cannstatt",
        "note": "\"Stuttgart-Bad Cannstatt\" ist die offizielle Betriebsstellenbezeichnung - deshalb zu official_name verschoben",
        "official_name": "Stuttgart-Bad Cannstatt",
        "operator": "DB InfraGO AG",
        "public_transport": "station",
        "railway": "station",
        "railway:ref": "TSC",
        "railway:station_category": "3",
        "ref:IFOPT": "de:08111:6333",
        "ref:ibnr": "8005769",
        "ref:station": "6077",
        "short_name": "Stg-Bad Cannst",
        "train": "yes",
        "uic_ref": "8029041",
        "wheelchair": "yes",
        "wikidata": "Q321680",
        "wikipedia": "de:Bahnhof Stuttgart-Bad Cannstatt"
      },
      "geometry": {
        "type": "Point",
        "coordinates": [
          9.2168515,
          48.8014069
        ]
      },
      "id": "node/3043452988"
    },
    {
      "type": "Feature",
      "properties": {
        "@id": "node/3045280857",
        "fee_zone": "1",
        "name": "Nürnberger Straße",
        "network": "VVS",
        "official_name": "Stuttgart Nürnberger Straße",
        "operator": "DB InfraGO AG",
        "public_transport": "station",
        "railway": "halt",
        "railway:position": "2.700",
        "railway:ref": "TSNU",
        "railway:station_category": "5",
        "ref:IFOPT": "de:08111:34",
        "ref:ibnr": "8004357",
        "ref:station": "6074",
        "short_name": "Stg Nürnbg Str",
        "train": "yes",
        "uic_ref": "8029512",
        "wheelchair": "limited",
        "wikidata": "Q130397",
        "wikipedia": "de:Haltepunkt Stuttgart Nürnberger Straße"
      },
      "geometry": {
        "type": "Point",
        "coordinates": [
          9.2348625,
          48.806375
        ]
      },
      "id": "node/3045280857"
    },
    {
      "type": "Feature",
      "properties": {
        "@id": "node/3045304520",
        "alt_name": "Sommerrain",
        "fee_zone": "1",
        "name": "Sommerrain",
        "network": "VVS",
        "note": "\"Stuttgart Sommerrain\" ist die offizielle und in den Fahrplanmedien ausgewiesene Betriebsstellenbezeichnung - deshalb official_name",
        "official_name": "Stuttgart-Sommerrain",
        "operator": "DB InfraGO AG",
        "public_transport": "station",
        "rail": "yes",
        "railway": "halt",
        "railway:ref": "TSSM",
        "railway:station_category": "5",
        "ref:IFOPT": "de:08111:1300",
        "ref:ibnr": "8005774",
        "ref:station": "6084",
        "short_name": "Stg-Sommerrain",
        "train": "yes",
        "uic_ref": "8029513",
        "wheelchair": "no"
      },
      "geometry": {
        "type": "Point",
        "coordinates": [
          9.248517,
          48.8152317
        ]
      },
      "id": "node/3045304520"
    },
    {
      "type": "Feature",
      "properties": {
        "@id": "node/3045348184",
        "bus": "no",
        "fee_zone": "1;2",
        "name": "Fellbach",
        "network": "Verkehrs- und Tarifverbund Stuttgart",
        "note": "Dieser Node nimmt stellvertretend für den Bahnhof die Bahnhofsinformationen auf (je Bahnhof soll laut OSM-Wiki nur ein Node gesetzt werden)",
        "operator": "DB InfraGO AG",
        "public_transport": "station",
        "rail": "yes",
        "railway": "station",
        "railway:ref": "TFE",
        "railway:station_category": "3",
        "ref": "1",
        "ref:IFOPT": "de:08119:6500",
        "ref:ibnr": "8001974",
        "ref:station": "1775",
        "uic_ref": "8029514",
        "wheelchair": "yes",
        "wikidata": "Q130382",
        "wikipedia": "de:Bahnhof Fellbach"
      },
      "geometry": {
        "type": "Point",
        "coordinates": [
          9.2707765,
          48.820297
        ]
      },
      "id": "node/3045348184"
    },
    {
      "type": "Feature",
      "properties": {
        "@id": "node/3045595163",
        "departures_board": "realtime",
        "departures_board:speech_output": "no",
        "fee_zone": "2;3",
        "name": "Ditzingen",
        "network": "Verkehrs- und Tarifverbund Stuttgart",
        "network:guid": "DE-BW-VVS",
        "network:short": "VVS",
        "network:wikidata": "Q2516108",
        "operator": "DB InfraGO AG",
        "public_transport": "station",
        "railway": "station",
        "railway:ref": "TDI",
        "railway:station_category": "4",
        "ref:IFOPT": "de:08118:7000",
        "ref:ibnr": "8001476",
        "ref:station": "1234",
        "train": "yes",
        "uic_ref": "8029442",
        "wheelchair": "yes",
        "wikidata": "Q800671"
      },
      "geometry": {
        "type": "Point",
        "coordinates": [
          9.0674255,
          48.8235995
        ]
      },
      "id": "node/3045595163"
    },
    {
      "type": "Feature",
      "properties": {
        "@id": "node/3055341381",
        "fee_zone": "2",
        "name": "Kornwestheim Personenbahnhof",
        "network": "Verkehrs- und Tarifverbund Stuttgart",
        "network:guid": "DE-BW-VVS",
        "network:short": "VVS",
        "network:wikidata": "Q2516108",
        "operator": "DB InfraGO AG",
        "public_transport": "station",
        "railway": "station",
        "railway:ref": "TKH",
        "railway:station_category": "3",
        "ref:IFOPT": "de:08118:1402",
        "ref:ibnr": "8003411",
        "ref:station": "3379",
        "short_name": "Kornwestheim Pbf",
        "train": "yes",
        "uic_ref": "8029026",
        "wheelchair": "yes",
        "wikidata": "Q440554",
        "wikipedia": "de:Kornwestheim Personenbahnhof"
      },
      "geometry": {
        "type": "Point",
        "coordinates": [
          9.1800732,
          48.8621538
        ]
      },
      "id": "node/3055341381"
    },
    {
      "type": "Feature",
      "properties": {
        "@id": "node/3068189388",
        "alt_name": "Stuttgart Neckarpark (Mercedes-Benz)",
        "fee_zone": "1",
        "name": "Stuttgart Neckarpark",
        "network": "Verkehrs- und Tarifverbund Stuttgart",
        "network:guid": "DE-BW-VVS",
        "network:short": "VVS",
        "network:wikidata": "Q2516108",
        "note": "\"Stuttgart Neckarpark\" ist die offizielle Stationsbezeichhnung",
        "old_name": "Gottlieb-Daimler-Stadion",
        "operator": "DB InfraGO AG",
        "public_transport": "station",
        "railway": "station",
        "railway:ref": "TSNS",
        "railway:station_category": "4",
        "ref:IFOPT": "de:08111:6080",
        "ref:ibnr": "8006743",
        "ref:station": "6072",
        "short_name": "Stg Neckarpark",
        "toilets:wheelchair": "no",
        "train": "yes",
        "uic_ref": "8029377",
        "wheelchair": "yes",
        "wikidata": "Q801487",
        "wikipedia": "de:Bahnhof Stuttgart Neckarpark"
      },
      "geometry": {
        "type": "Point",
        "coordinates": [
          9.2411731,
          48.7918161
        ]
      },
      "id": "node/3068189388"
    },
    {
      "type": "Feature",
      "properties": {
        "@id": "node/3069962207",
        "name": "Bruchhausen (bei Ettlingen)",
        "network": "Karlsruher Verkehrsverbund",
        "operator": "DB InfraGO AG",
        "public_transport": "station",
        "railway": "halt",
        "railway:ref": "RBRH",
        "railway:station_category": "6",
        "ref:IFOPT": "de:08215:1841",
        "ref:ibnr": "8001198",
        "ref:station": "900",
        "uic_ref": "8014239",
        "wheelchair": "no",
        "wikidata": "Q116024906"
      },
      "geometry": {
        "type": "Point",
        "coordinates": [
          8.3739571,
          48.9239869
        ]
      },
      "id": "node/3069962207"
    },
    {
      "type": "Feature",
      "properties": {
        "@id": "node/3154068055",
        "name": "Schwetzingen-Hirschacker",
        "network": "Verkehrsverbund Rhein-Neckar",
        "network:guid": "DE-BW-VRN",
        "network:short": "VRN",
        "network:wikidata": "Q1553051",
        "network:wikipedia": "de:Verkehrsverbund Rhein-Neckar",
        "operator": "DB InfraGO AG",
        "public_transport": "station",
        "railway": "halt",
        "railway:ref": "RHKR",
        "railway:station_category": "5",
        "ref:IFOPT": "de:08226:35055",
        "ref:ibnr": "8005493",
        "ref:station": "8260",
        "start_date": "2022-12-11",
        "train": "yes",
        "wikidata": "Q122841762"
      },
      "geometry": {
        "type": "Point",
        "coordinates": [
          8.5568833,
          49.4063513
        ]
      },
      "id": "node/3154068055"
    },
    {
      "type": "Feature",
      "properties": {
        "@id": "node/3265807466",
        "name": "Ludwigshafen-Rheingönheim",
        "operator": "DB InfraGO AG",
        "public_transport": "station",
        "railway": "station",
        "railway:position": "101.392;101.000",
        "railway:ref": "RLUR",
        "railway:ref:parent": "RL",
        "railway:station_category": "5",
        "ref:IFOPT": "de:07314:2189:1",
        "uic_ref": "8003767",
        "wheelchair": "yes",
        "wikidata": "Q47093332"
      },
      "geometry": {
        "type": "Point",
        "coordinates": [
          8.4092521,
          49.4471747
        ]
      },
      "id": "node/3265807466"
    },
    {
      "type": "Feature",
      "properties": {
        "@id": "node/3321341099",
        "light_rail": "yes",
        "name": "Karlsruhe-Mühlburg",
        "operator": "DB InfraGO AG",
        "public_transport": "station",
        "railway": "station",
        "railway:ref": "RKMG",
        "railway:station_category": "6",
        "ref:IFOPT": "de:08212:32587",
        "ref:ibnr": "8003187",
        "ref:station": "3112",
        "train": "yes",
        "uic_ref": "8014083",
        "wheelchair": "limited",
        "wikidata": "Q15891050",
        "wikipedia": "de:Bahnhof Karlsruhe-Mühlburg"
      },
      "geometry": {
        "type": "Point",
        "coordinates": [
          8.3511104,
          49.0145576
        ]
      },
      "id": "node/3321341099"
    },
    {
      "type": "Feature",
      "properties": {
        "@id": "node/3419993110",
        "name": "Mannheim-Käfertal",
        "network": "Verkehrsverbund Rhein-Neckar",
        "network:guid": "DE-BW-VRN",
        "network:short": "VRN",
        "network:wikidata": "Q1553051",
        "network:wikipedia": "de:Verkehrsverbund Rhein-Neckar",
        "operator": "DB InfraGO AG",
        "public_transport": "station",
        "railway": "station",
        "railway:ref": "RMKL",
        "railway:station_category": "6",
        "ref:IFOPT": "de:08222:2356",
        "ref:ibnr": "8003843",
        "ref:station": "3930",
        "uic_ref": "8014006",
        "wheelchair": "yes",
        "wikidata": "Q15107221",
        "wikipedia": "de:Bahnhof Mannheim-Käfertal"
      },
      "geometry": {
        "type": "Point",
        "coordinates": [
          8.5038114,
          49.5014671
        ]
      },
      "id": "node/3419993110"
    },
    {
      "type": "Feature",
      "properties": {
        "@id": "node/3657001833",
        "layer": "1",
        "name": "Mannheim Handelshafen/Jungbusch",
        "network": "Verkehrsverbund Rhein-Neckar",
        "network:guid": "DE-BW-VRN",
        "network:short": "VRN",
        "network:wikidata": "Q1553051",
        "network:wikipedia": "de:Verkehrsverbund Rhein-Neckar",
        "old_name": "Mannheim-Handelshafen",
        "operator": "DB InfraGO AG",
        "public_transport": "station",
        "railway": "halt",
        "railway:ref": "RMHH",
        "railway:station_category": "6",
        "ref:IFOPT": "de:08222:2416",
        "ref:ibnr": "8006508",
        "ref:station": "3929",
        "start_date": "1985-06-02",
        "uic_ref": "8014562"
      },
      "geometry": {
        "type": "Point",
        "coordinates": [
          8.4539425,
          49.4927322
        ]
      },
      "id": "node/3657001833"
    },
    {
      "type": "Feature",
      "properties": {
        "@id": "node/3822913060",
        "name": "Mannheim-Neckarstadt",
        "network": "Verkehrsverbund Rhein-Neckar",
        "network:guid": "DE-BW-VRN",
        "network:short": "VRN",
        "network:wikidata": "Q1553051",
        "network:wikipedia": "de:Verkehrsverbund Rhein-Neckar",
        "operator": "DB InfraGO AG",
        "public_transport": "station",
        "railway": "halt",
        "railway:ref": "RMNS",
        "railway:station_category": "6",
        "ref:IFOPT": "de:08222:2446",
        "ref:ibnr": "8006511",
        "ref:station": "3933",
        "start_date": "1985-06-02",
        "uic_ref": "8014567"
      },
      "geometry": {
        "type": "Point",
        "coordinates": [
          8.4606257,
          49.5046094
        ]
      },
      "id": "node/3822913060"
    },
    {
      "type": "Feature",
      "properties": {
        "@id": "node/3823497763",
        "name": "Mannheim-Luzenberg",
        "network": "Verkehrsverbund Rhein-Neckar",
        "network:guid": "DE-BW-VRN",
        "network:short": "VRN",
        "network:wikidata": "Q1553051",
        "network:wikipedia": "de:Verkehrsverbund Rhein-Neckar",
        "operator": "DB InfraGO AG",
        "public_transport": "station",
        "railway": "halt",
        "railway:ref": "RMLB",
        "railway:station_category": "5",
        "ref:IFOPT": "de:08222:2386",
        "ref:ibnr": "8006509",
        "ref:station": "3931",
        "start_date": "1985-06-02",
        "uic_ref": "8014563"
      },
      "geometry": {
        "type": "Point",
        "coordinates": [
          8.4783424,
          49.5176596
        ]
      },
      "id": "node/3823497763"
    },
    {
      "type": "Feature",
      "properties": {
        "@id": "node/4831509038",
        "name": "Limburgerhof",
        "old_name": "Mutterstadt Hbf",
        "operator": "DB InfraGO AG",
        "public_transport": "station",
        "railway": "halt",
        "railway:ref": "RLI",
        "railway:station_category": "4",
        "uic_ref": "8003687",
        "wheelchair": "yes",
        "wikidata": "Q16318639",
        "wikipedia": "de:Bahnhof Limburgerhof"
      },
      "geometry": {
        "type": "Point",
        "coordinates": [
          8.390697,
          49.4241965
        ]
      },
      "id": "node/4831509038"
    },
    {
      "type": "Feature",
      "properties": {
        "@id": "node/5108659830",
        "name": "Ludwigshafen (Rhein) Mitte",
        "operator": "DB InfraGO AG",
        "public_transport": "station",
        "railway": "halt",
        "railway:position": "68.600;106.442",
        "railway:ref": "RLSM",
        "railway:station_category": "3",
        "ref:IFOPT": "de:07314:2019",
        "ref:station": "7385",
        "uic_name": "Ludwigshafen(Rhein) Mitte",
        "uic_ref": "8003759",
        "wheelchair": "yes",
        "wikidata": "Q320489",
        "wikipedia": "de:Bahnhof Ludwigshafen (Rhein) Mitte"
      },
      "geometry": {
        "type": "Point",
        "coordinates": [
          8.4528731,
          49.4792999
        ]
      },
      "id": "node/5108659830"
    },
    {
      "type": "Feature",
      "properties": {
        "@id": "node/6298426136",
        "name": "Stuttgart-Münster",
        "operator": "DB InfraGO AG",
        "public_transport": "station",
        "railway": "station",
        "railway:ref": "TSM",
        "railway:station_category": "7",
        "ref:IFOPT": "de:08111:1504",
        "ref:ibnr": "8005771",
        "ref:station": "6080",
        "short_name": "Stg-Münster",
        "train": "yes",
        "uic_ref": "8029028",
        "wheelchair": "yes",
        "wikidata": "Q801475",
        "wikipedia": "de:Bahnhof Stuttgart-Münster"
      },
      "geometry": {
        "type": "Point",
        "coordinates": [
          9.2161743,
          48.8207118
        ]
      },
      "id": "node/6298426136"
    },
    {
      "type": "Feature",
      "properties": {
        "@id": "node/6298426137",
        "name": "Stuttgart-Ebitzweg",
        "operator": "DB InfraGO AG",
        "public_transport": "station",
        "railway": "halt",
        "railway:ref": "TSEB",
        "railway:station_category": "7",
        "ref:IFOPT": "de:08111:1604",
        "ref:ibnr": "8005766",
        "ref:station": "6070",
        "short_name": "Stg-Ebitzweg",
        "train": "yes",
        "uic_ref": "8029029",
        "wheelchair": "limited"
      },
      "geometry": {
        "type": "Point",
        "coordinates": [
          9.2318241,
          48.8037427
        ]
      },
      "id": "node/6298426137"
    }
  ]
}