{
  "type": "FeatureCollection",
  "generator": "overpass-turbo",
  "copyright": "The data included in this document is from www.openstreetmap.org. The data is made available under ODbL.",
  "timestamp": "2026-06-10T13:24:31Z",
  "features": [
    {
      "type": "Feature",
      "properties": {
        "@id": "relation/3251879",
        "addr:city": "Karlsruhe",
        "addr:country": "DE",
        "addr:housename": "Theodor Steinmann Haus",
        "addr:postcode": "76133",
        "addr:street": "Gartenstraße",
        "building": "dormitory",
        "name": "Theodor Steinmann Haus",
        "type": "multipolygon",
        "@geometry": "center"
      },
      "geometry": {
        "type": "Point",
        "coordinates": [
          8.3927109,
          49.0045444
        ]
      },
      "id": "relation/3251879"
    },
    {
      "type": "Feature",
      "properties": {
        "@id": "relation/4099290",
        "alt_name": "Europahaus",
        "building": "dormitory",
        "building:colour": "white",
        "building:levels": "4",
        "building:material": "concrete",
        "dormitory": "student",
        "name": "Internationales Wohnheim Europahaus",
        "roof:colour": "silver",
        "roof:levels": "0",
        "roof:material": "metal",
        "roof:shape": "gabled",
        "type": "multipolygon",
        "@geometry": "center"
      },
      "geometry": {
        "type": "Point",
        "coordinates": [
          8.3931432,
          49.0168177
        ]
      },
      "id": "relation/4099290"
    },
    {
      "type": "Feature",
      "properties": {
        "@id": "relation/13194260",
        "building": "dormitory",
        "type": "multipolygon",
        "@geometry": "center"
      },
      "geometry": {
        "type": "Point",
        "coordinates": [
          8.4087828,
          48.9382564
        ]
      },
      "id": "relation/13194260"
    },
    {
      "type": "Feature",
      "properties": {
        "@id": "way/19782878",
        "addr:city": "Karlsruhe",
        "addr:country": "DE",
        "addr:housenumber": "1",
        "addr:postcode": "76131",
        "addr:street": "Willy-Andreas-Allee",
        "building": "dormitory",
        "building:levels": "8",
        "contact:website": "https://www.hek.whka.de/",
        "denomination": "protestant",
        "description": "Studentenwohnheim",
        "name": "Hermann-Ehlers-Kolleg",
        "operator:type": "religious",
        "religion": "christian",
        "roof:shape": "flat",
        "short_name": "HEK",
        "@geometry": "center"
      },
      "geometry": {
        "type": "Point",
        "coordinates": [
          8.3970449,
          49.0156628
        ]
      },
      "id": "way/19782878"
    },
    {
      "type": "Feature",
      "properties": {
        "@id": "way/20909486",
        "addr:city": "Karlsruhe",
        "addr:country": "DE",
        "addr:housenumber": "5",
        "addr:postcode": "76131",
        "addr:street": "Willy-Andreas-Allee",
        "building": "dormitory",
        "building:colour": "#C27353",
        "building:levels": "8",
        "contact:website": "http://www.abh.uni-karlsruhe.de",
        "denomination": "roman_catholic",
        "description": "Studentenwohnheim",
        "name": "Augustin-Bea-Haus",
        "operator": "Erzdiözese Freiburg",
        "operator:type": "religious",
        "religion": "christian",
        "roof:shape": "flat",
        "short_name": "ABH",
        "wheelchair": "yes",
        "wheelchair:description": "kleine Stufe am Eingang, Aufzug vorhanden.",
        "@geometry": "center"
      },
      "geometry": {
        "type": "Point",
        "coordinates": [
          8.3958129,
          49.0162548
        ]
      },
      "id": "way/20909486"
    },
    {
      "type": "Feature",
      "properties": {
        "@id": "way/20911412",
        "addr:city": "Karlsruhe",
        "addr:country": "DE",
        "addr:housenumber": "3",
        "addr:postcode": "76131",
        "addr:street": "Willy-Andreas-Allee",
        "building": "dormitory",
        "building:levels": "8",
        "contact:website": "https://www.abh.whka.de",
        "denomination": "roman_catholic",
        "description": "Studentenwohnheim",
        "name": "Reinhold-Schneider-Haus",
        "operator": "Erzdiözese Freiburg",
        "operator:type": "religious",
        "religion": "christian",
        "roof:shape": "flat",
        "short_name": "RSH",
        "website": "https://www.abh.whka.de",
        "@geometry": "center"
      },
      "geometry": {
        "type": "Point",
        "coordinates": [
          8.3964719,
          49.016049
        ]
      },
      "id": "way/20911412"
    },
    {
      "type": "Feature",
      "properties": {
        "@id": "way/23138236",
        "addr:city": "Karlsruhe",
        "addr:country": "DE",
        "addr:housenumber": "7",
        "addr:postcode": "76131",
        "addr:street": "Willy-Andreas-Allee",
        "building": "dormitory",
        "building:levels": "8",
        "contact:website": "https://www.domus7.org",
        "description": "Studentenwohnheim",
        "name": "Domus 7",
        "old_name": "Karl-Hans-Albrecht-Haus",
        "old_short_name": "KHA",
        "operator": "Verein der Freunde der Hochschule Karlsruhe e.V.",
        "operator:type": "community",
        "roof:shape": "flat",
        "short_name": "D7",
        "start_date": "1966",
        "wheelchair": "no",
        "wheelchair:description": "Rollstuhlgerechter Eingang durch den Keller, Aufzug vorhanden.",
        "@geometry": "center"
      },
      "geometry": {
        "type": "Point",
        "coordinates": [
          8.3952409,
          49.0159913
        ]
      },
      "id": "way/23138236"
    },
    {
      "type": "Feature",
      "properties": {
        "@id": "way/24212752",
        "addr:city": "Karlsruhe",
        "addr:country": "DE",
        "addr:housenumber": "20 W-X",
        "addr:postcode": "76187",
        "addr:street": "Nancystraße",
        "building": "dormitory",
        "building:levels": "5",
        "building:use": "residential",
        "roof:levels": "0",
        "roof:shape": "gabled",
        "smoking": "outside",
        "@geometry": "center"
      },
      "geometry": {
        "type": "Point",
        "coordinates": [
          8.3704859,
          49.0211173
        ]
      },
      "id": "way/24212752"
    },
    {
      "type": "Feature",
      "properties": {
        "@id": "way/24212753",
        "addr:city": "Karlsruhe",
        "addr:country": "DE",
        "addr:housenumber": "20 S-T",
        "addr:postcode": "76187",
        "addr:street": "Nancystraße",
        "building": "dormitory",
        "building:levels": "5",
        "building:use": "residential",
        "roof:levels": "0",
        "roof:shape": "gabled",
        "smoking": "outside",
        "@geometry": "center"
      },
      "geometry": {
        "type": "Point",
        "coordinates": [
          8.3708967,
          49.0209232
        ]
      },
      "id": "way/24212753"
    },
    {
      "type": "Feature",
      "properties": {
        "@id": "way/24212754",
        "addr:city": "Karlsruhe",
        "addr:country": "DE",
        "addr:housenumber": "24a",
        "addr:postcode": "76187",
        "addr:street": "Nancystraße",
        "building": "dormitory",
        "building:levels": "3",
        "building:use": "residential",
        "roof:shape": "gabled",
        "@geometry": "center"
      },
      "geometry": {
        "type": "Point",
        "coordinates": [
          8.3695316,
          49.0215451
        ]
      },
      "id": "way/24212754"
    },
    {
      "type": "Feature",
      "properties": {
        "@id": "way/24212761",
        "addr:city": "Karlsruhe",
        "addr:country": "DE",
        "addr:housenumber": "24b",
        "addr:postcode": "76187",
        "addr:street": "Nancystraße",
        "building": "dormitory",
        "building:levels": "3",
        "building:use": "residential",
        "roof:shape": "gabled",
        "@geometry": "center"
      },
      "geometry": {
        "type": "Point",
        "coordinates": [
          8.3696815,
          49.0216729
        ]
      },
      "id": "way/24212761"
    },
    {
      "type": "Feature",
      "properties": {
        "@id": "way/24212762",
        "addr:city": "Karlsruhe",
        "addr:country": "DE",
        "addr:housenumber": "24c",
        "addr:postcode": "76187",
        "addr:street": "Nancystraße",
        "building": "dormitory",
        "building:levels": "3",
        "building:use": "residential",
        "roof:shape": "gabled",
        "@geometry": "center"
      },
      "geometry": {
        "type": "Point",
        "coordinates": [
          8.3698255,
          49.0217977
        ]
      },
      "id": "way/24212762"
    },
    {
      "type": "Feature",
      "properties": {
        "@id": "way/24212763",
        "addr:city": "Karlsruhe",
        "addr:country": "DE",
        "addr:housenumber": "24e",
        "addr:postcode": "76187",
        "addr:street": "Nancystraße",
        "building": "dormitory",
        "building:levels": "3",
        "building:use": "residential",
        "roof:levels": "1",
        "roof:shape": "gabled",
        "@geometry": "center"
      },
      "geometry": {
        "type": "Point",
        "coordinates": [
          8.3692809,
          49.0218846
        ]
      },
      "id": "way/24212763"
    },
    {
      "type": "Feature",
      "properties": {
        "@id": "way/24212765",
        "addr:city": "Karlsruhe",
        "addr:country": "DE",
        "addr:housenumber": "24d",
        "addr:postcode": "76187",
        "addr:street": "Nancystraße",
        "building": "dormitory",
        "building:levels": "3",
        "building:use": "residential",
        "roof:levels": "1",
        "roof:shape": "gabled",
        "@geometry": "center"
      },
      "geometry": {
        "type": "Point",
        "coordinates": [
          8.3691275,
          49.0217537
        ]
      },
      "id": "way/24212765"
    },
    {
      "type": "Feature",
      "properties": {
        "@id": "way/24212766",
        "addr:city": "Karlsruhe",
        "addr:country": "DE",
        "addr:housenumber": "24f",
        "addr:postcode": "76187",
        "addr:street": "Nancystraße",
        "building": "dormitory",
        "building:levels": "3",
        "building:use": "residential",
        "roof:levels": "1",
        "roof:shape": "gabled",
        "@geometry": "center"
      },
      "geometry": {
        "type": "Point",
        "coordinates": [
          8.3694224,
          49.0220043
        ]
      },
      "id": "way/24212766"
    },
    {
      "type": "Feature",
      "properties": {
        "@id": "way/26383762",
        "addr:city": "Eggenstein-Leopoldshafen",
        "addr:country": "DE",
        "addr:housenumber": "3",
        "addr:postcode": "76344",
        "addr:street": "Berliner Ring",
        "building": "dormitory",
        "building:levels": "3",
        "roof:levels": "0",
        "roof:shape": "skillion",
        "source": "Maps4BW",
        "@geometry": "center"
      },
      "geometry": {
        "type": "Point",
        "coordinates": [
          8.4040405,
          49.0878881
        ]
      },
      "id": "way/26383762"
    },
    {
      "type": "Feature",
      "properties": {
        "@id": "way/26793925",
        "addr:city": "Karlsruhe",
        "addr:country": "DE",
        "addr:housenumber": "20 U-V",
        "addr:postcode": "76187",
        "addr:street": "Nancystraße",
        "building": "dormitory",
        "building:levels": "5",
        "building:use": "residential",
        "roof:levels": "0",
        "roof:shape": "gabled",
        "smoking": "outside",
        "@geometry": "center"
      },
      "geometry": {
        "type": "Point",
        "coordinates": [
          8.3711192,
          49.021129
        ]
      },
      "id": "way/26793925"
    },
    {
      "type": "Feature",
      "properties": {
        "@id": "way/26793926",
        "addr:city": "Karlsruhe",
        "addr:country": "DE",
        "addr:housenumber": "20 Y-Z",
        "addr:postcode": "76187",
        "addr:street": "Nancystraße",
        "building": "dormitory",
        "building:levels": "5",
        "building:use": "residential",
        "roof:levels": "0",
        "roof:shape": "gabled",
        "smoking": "outside",
        "@geometry": "center"
      },
      "geometry": {
        "type": "Point",
        "coordinates": [
          8.3707067,
          49.0213225
        ]
      },
      "id": "way/26793926"
    },
    {
      "type": "Feature",
      "properties": {
        "@id": "way/27080858",
        "addr:city": "Karlsruhe",
        "addr:country": "DE",
        "addr:housenumber": "3",
        "addr:postcode": "76189",
        "addr:street": "Thomas-Mann-Straße",
        "building": "dormitory",
        "building:levels": "10",
        "name": "Neues Christophorus-Haus",
        "roof:levels": "0",
        "source:addr": "Maps4BW, LGL, www.lgl-bw.de",
        "@geometry": "center"
      },
      "geometry": {
        "type": "Point",
        "coordinates": [
          8.3423874,
          48.9983213
        ]
      },
      "id": "way/27080858"
    },
    {
      "type": "Feature",
      "properties": {
        "@id": "way/36448591",
        "addr:city": "Karlsruhe",
        "addr:country": "DE",
        "addr:housenumber": "18 N-P",
        "addr:postcode": "76187",
        "addr:street": "Nancystraße",
        "building": "dormitory",
        "building:levels": "5",
        "building:use": "residential",
        "roof:levels": "0",
        "roof:shape": "gabled",
        "smoking": "outside",
        "source:geometry": "Maps4BW, LGL, www.lgl-bw.de",
        "start_date": "2009",
        "@geometry": "center"
      },
      "geometry": {
        "type": "Point",
        "coordinates": [
          8.3712727,
          49.0207469
        ]
      },
      "id": "way/36448591"
    },
    {
      "type": "Feature",
      "properties": {
        "@id": "way/36448594",
        "addr:city": "Karlsruhe",
        "addr:country": "DE",
        "addr:housenumber": "18 J-K",
        "addr:postcode": "76187",
        "addr:street": "Nancystraße",
        "building": "dormitory",
        "building:levels": "5",
        "building:use": "residential",
        "roof:levels": "0",
        "roof:shape": "gabled",
        "smoking": "outside",
        "source:geometry": "Maps4BW, LGL, www.lgl-bw.de",
        "start_date": "2009",
        "@geometry": "center"
      },
      "geometry": {
        "type": "Point",
        "coordinates": [
          8.3716728,
          49.0205595
        ]
      },
      "id": "way/36448594"
    },
    {
      "type": "Feature",
      "properties": {
        "@id": "way/36448595",
        "addr:city": "Karlsruhe",
        "addr:country": "DE",
        "addr:housenumber": "18 Q-R",
        "addr:postcode": "76187",
        "addr:street": "Nancystraße",
        "building": "dormitory",
        "building:levels": "5",
        "building:use": "residential",
        "roof:levels": "0",
        "roof:shape": "gabled",
        "smoking": "outside",
        "source:geometry": "Maps4BW, LGL, www.lgl-bw.de",
        "start_date": "2009",
        "@geometry": "center"
      },
      "geometry": {
        "type": "Point",
        "coordinates": [
          8.3714935,
          49.0209517
        ]
      },
      "id": "way/36448595"
    },
    {
      "type": "Feature",
      "properties": {
        "@id": "way/36448597",
        "addr:city": "Karlsruhe",
        "addr:country": "DE",
        "addr:housenumber": "18 L-M",
        "addr:postcode": "76187",
        "addr:street": "Nancystraße",
        "building": "dormitory",
        "building:levels": "5",
        "building:use": "residential",
        "roof:levels": "0",
        "roof:shape": "gabled",
        "smoking": "outside",
        "source:geometry": "Maps4BW, LGL, www.lgl-bw.de",
        "start_date": "2009",
        "@geometry": "center"
      },
      "geometry": {
        "type": "Point",
        "coordinates": [
          8.3718934,
          49.0207644
        ]
      },
      "id": "way/36448597"
    },
    {
      "type": "Feature",
      "properties": {
        "@id": "way/43599388",
        "addr:city": "Karlsruhe",
        "addr:housenumber": "6",
        "addr:postcode": "76131",
        "addr:street": "Adenauerring",
        "building": "dormitory",
        "building:levels": "4",
        "heritage": "yes",
        "name": "Kolleg am Ring",
        "operator": "Studentenwohnheim des Karlsruher Instituts für Technologie (KIT) e.V.",
        "ref": "50.22",
        "roof:levels": "0",
        "roof:shape": "flat",
        "source:geometry": "Maps4BW, LGL, www.lgl-bw.de",
        "start_date": "1950s",
        "wheelchair": "no",
        "@geometry": "center"
      },
      "geometry": {
        "type": "Point",
        "coordinates": [
          8.4195482,
          49.0108495
        ]
      },
      "id": "way/43599388"
    },
    {
      "type": "Feature",
      "properties": {
        "@id": "way/90048653",
        "building": "dormitory",
        "building:levels": "4",
        "contact:website": "https://www.weechstrasse.de",
        "denomination": "protestant",
        "name": "Hans-Wolfgang-Heidland-Haus",
        "operator": "Evangelische Kirchenverwaltung Karlsruhe",
        "operator:type": "religious",
        "religion": "christian",
        "roof:levels": "1",
        "roof:shape": "flat",
        "rooms": "129",
        "source:geometry": "Maps4BW, LGL, www.lgl-bw.de;Esri",
        "start_date": "1994",
        "@geometry": "center"
      },
      "geometry": {
        "type": "Point",
        "coordinates": [
          8.4328259,
          49.0117696
        ]
      },
      "id": "way/90048653"
    },
    {
      "type": "Feature",
      "properties": {
        "@id": "way/90420278",
        "access": "permissive",
        "addr:city": "Karlsruhe",
        "addr:country": "DE",
        "addr:housenumber": "1",
        "addr:postcode": "76131",
        "addr:street": "Am Schloss Gottesaue",
        "alt_name": "Rotary House",
        "building": "dormitory",
        "building:levels": "4",
        "name": "Wohnheim Am Schloss Gottesaue 1",
        "operator": "Studierendenwerk Karlsruhe",
        "roof:levels": "1",
        "roof:shape": "hipped",
        "source:geometry": "Maps4BW, LGL, www.lgl-bw.de",
        "@geometry": "center"
      },
      "geometry": {
        "type": "Point",
        "coordinates": [
          8.4247031,
          49.0040406
        ]
      },
      "id": "way/90420278"
    },
    {
      "type": "Feature",
      "properties": {
        "@id": "way/96291252",
        "building": "dormitory",
        "building:levels": "3",
        "dormitory": "student",
        "heritage": "yes",
        "nohousenumber": "yes",
        "operator": "Studierendenwerk Karlsruhe",
        "ref": "70.18",
        "roof:levels": "2",
        "roof:material": "roof_tiles",
        "roof:shape": "hipped",
        "source:geometry": "Maps4BW, LGL, www.lgl-bw.de",
        "start_date": "1938",
        "@geometry": "center"
      },
      "geometry": {
        "type": "Point",
        "coordinates": [
          8.431461,
          49.0214293
        ]
      },
      "id": "way/96291252"
    },
    {
      "type": "Feature",
      "properties": {
        "@id": "way/108777113",
        "addr:city": "Karlsruhe",
        "addr:country": "DE",
        "addr:housenumber": "36",
        "addr:postcode": "76131",
        "addr:street": "Waldhornstraße",
        "building": "dormitory",
        "building:levels": "7",
        "contact:website": "https://www.wh36.uni-karlsruhe.de",
        "name": "Studentenwohnheim WH36",
        "operator": "Studierendenwerk Karlsruhe",
        "roof:colour": "grey",
        "roof:material": "gravel",
        "roof:shape": "flat",
        "source:geometry": "Maps4BW (LGL, www.lgl-bw.de)",
        "start_date": "1981",
        "url": "http://www.sw-ka.de/de/wohnen/wohnheime_ka/waldhornstrasse_36/",
        "wheelchair": "limited",
        "wheelchair:description": "Gebäude A, B und C sind über hohen Treppen erreichbar, D und E nicht.",
        "@geometry": "center"
      },
      "geometry": {
        "type": "Point",
        "coordinates": [
          8.4114622,
          49.0083234
        ]
      },
      "id": "way/108777113"
    },
    {
      "type": "Feature",
      "properties": {
        "@id": "way/108777161",
        "building": "dormitory",
        "source:geometry": "Maps4BW (LGL, www.lgl-bw.de)",
        "start_date": "1980s",
        "@geometry": "center"
      },
      "geometry": {
        "type": "Point",
        "coordinates": [
          8.4107066,
          49.0082674
        ]
      },
      "id": "way/108777161"
    },
    {
      "type": "Feature",
      "properties": {
        "@id": "way/108777163",
        "addr:city": "Karlsruhe",
        "addr:country": "DE",
        "addr:housenumber": "11",
        "addr:postcode": "76131",
        "addr:street": "Fasanenstraße",
        "building": "dormitory",
        "building:levels": "3",
        "roof:levels": "1",
        "roof:shape": "gabled",
        "@geometry": "center"
      },
      "geometry": {
        "type": "Point",
        "coordinates": [
          8.41329,
          49.0081894
        ]
      },
      "id": "way/108777163"
    },
    {
      "type": "Feature",
      "properties": {
        "@id": "way/108777167",
        "addr:city": "Karlsruhe",
        "addr:country": "DE",
        "addr:housenumber": "13",
        "addr:postcode": "76131",
        "addr:street": "Zähringerstraße",
        "building": "dormitory",
        "building:levels": "3",
        "roof:levels": "1",
        "roof:shape": "gabled",
        "@geometry": "center"
      },
      "geometry": {
        "type": "Point",
        "coordinates": [
          8.4134306,
          49.0084078
        ]
      },
      "id": "way/108777167"
    },
    {
      "type": "Feature",
      "properties": {
        "@id": "way/108832338",
        "addr:city": "Karlsruhe",
        "addr:country": "DE",
        "addr:housenumber": "37",
        "addr:postcode": "76131",
        "addr:street": "Gottesauer Straße",
        "building": "dormitory",
        "building:levels": "5",
        "operator": "Upartments Real Estate GmbH",
        "roof:levels": "0",
        "start_date": "2011",
        "@geometry": "center"
      },
      "geometry": {
        "type": "Point",
        "coordinates": [
          8.421194,
          49.0066214
        ]
      },
      "id": "way/108832338"
    },
    {
      "type": "Feature",
      "properties": {
        "@id": "way/108953176",
        "addr:city": "Karlsruhe",
        "addr:country": "DE",
        "addr:housenumber": "7",
        "addr:postcode": "76131",
        "addr:street": "Klosterweg",
        "building": "dormitory",
        "building:levels": "6",
        "description": "Studentenwohnheim",
        "operator": "Studierendenwerk Karlsruhe",
        "roof:levels": "0",
        "roof:shape": "flat",
        "source:geometry": "Maps4BW, LGL, www.lgl-bw.de",
        "@geometry": "center"
      },
      "geometry": {
        "type": "Point",
        "coordinates": [
          8.4217819,
          49.016017
        ]
      },
      "id": "way/108953176"
    },
    {
      "type": "Feature",
      "properties": {
        "@id": "way/118078065",
        "addr:city": "Karlsruhe",
        "addr:country": "DE",
        "addr:housenumber": "2",
        "addr:postcode": "76137",
        "addr:street": "Albtalstraße",
        "building": "dormitory",
        "source:geometry": "Maps4BW, LGL, www.lgl-bw.de",
        "@geometry": "center"
      },
      "geometry": {
        "type": "Point",
        "coordinates": [
          8.394388,
          48.9968661
        ]
      },
      "id": "way/118078065"
    },
    {
      "type": "Feature",
      "properties": {
        "@id": "way/125079093",
        "addr:city": "Karlsruhe",
        "addr:country": "DE",
        "addr:housenumber": "4",
        "addr:postcode": "76199",
        "addr:street": "Graf-Eberstein-Straße",
        "building": "dormitory",
        "source:addr": "Maps4BW, LGL, www.lgl-bw.de",
        "source:outline": "Maps4BW (LGL-BW, www.lgl-bw.de); bing",
        "@geometry": "center"
      },
      "geometry": {
        "type": "Point",
        "coordinates": [
          8.4105407,
          48.9707473
        ]
      },
      "id": "way/125079093"
    },
    {
      "type": "Feature",
      "properties": {
        "@id": "way/141502344",
        "addr:city": "Karlsruhe",
        "addr:country": "DE",
        "addr:housenumber": "14",
        "addr:postcode": "76149",
        "addr:street": "Tennesseeallee",
        "building": "dormitory",
        "building:levels": "5",
        "name": "Max-Kade-Haus",
        "operator": "Studierendenwerk Karlsruhe",
        "roof:shape": "flat",
        "source:geometry": "Maps4BW, LGL, www.lgl-bw.de",
        "start_date": "2012",
        "@geometry": "center"
      },
      "geometry": {
        "type": "Point",
        "coordinates": [
          8.3890731,
          49.020285
        ]
      },
      "id": "way/141502344"
    },
    {
      "type": "Feature",
      "properties": {
        "@id": "way/173717518",
        "addr:city": "Karlsruhe",
        "addr:country": "DE",
        "addr:housenumber": "4",
        "addr:postcode": "76131",
        "addr:street": "Sebastian-Kneipp-Straße",
        "building": "dormitory",
        "building:levels": "3",
        "club": "fraternity",
        "name": "Karlsruher Burschenschaft Arminia",
        "website": "https://www.arminia-karlsruhe.de/",
        "@geometry": "center"
      },
      "geometry": {
        "type": "Point",
        "coordinates": [
          8.4232611,
          49.0148587
        ]
      },
      "id": "way/173717518"
    },
    {
      "type": "Feature",
      "properties": {
        "@id": "way/173717521",
        "addr:city": "Karlsruhe",
        "addr:country": "DE",
        "addr:housenumber": "1",
        "addr:postcode": "76131",
        "addr:street": "Parkstraße",
        "building": "dormitory",
        "building:levels": "3",
        "name": "Karlsruher Burschenschaft Teutonia",
        "roof:levels": "1",
        "roof:shape": "gabled",
        "source:geometry": "Maps4BW, LGL, www.lgl-bw.de",
        "@geometry": "center"
      },
      "geometry": {
        "type": "Point",
        "coordinates": [
          8.4227196,
          49.0145228
        ]
      },
      "id": "way/173717521"
    },
    {
      "type": "Feature",
      "properties": {
        "@id": "way/193681264",
        "addr:postcode": "76131",
        "addr:street": "Gottesauer Straße",
        "building": "dormitory",
        "operator": "Upartments Real Estate GmbH",
        "start_date": "2011",
        "@geometry": "center"
      },
      "geometry": {
        "type": "Point",
        "coordinates": [
          8.4214519,
          49.0067376
        ]
      },
      "id": "way/193681264"
    },
    {
      "type": "Feature",
      "properties": {
        "@id": "way/193681265",
        "addr:postcode": "76131",
        "addr:street": "Gottesauer Straße",
        "building": "dormitory",
        "operator": "Upartments Real Estate GmbH",
        "start_date": "2011",
        "@geometry": "center"
      },
      "geometry": {
        "type": "Point",
        "coordinates": [
          8.4214206,
          49.0069025
        ]
      },
      "id": "way/193681265"
    },
    {
      "type": "Feature",
      "properties": {
        "@id": "way/193681266",
        "addr:housename": "2.2",
        "addr:postcode": "76131",
        "addr:street": "Gottesauer Straße",
        "building": "dormitory",
        "operator": "Upartments Real Estate GmbH",
        "start_date": "2011",
        "@geometry": "center"
      },
      "geometry": {
        "type": "Point",
        "coordinates": [
          8.4216443,
          49.0071285
        ]
      },
      "id": "way/193681266"
    },
    {
      "type": "Feature",
      "properties": {
        "@id": "way/193681267",
        "addr:housenumber": "G2.2",
        "addr:postcode": "76131",
        "addr:street": "Gottesauer Straße",
        "building": "dormitory",
        "operator": "Upartments Real Estate GmbH",
        "start_date": "2011",
        "@geometry": "center"
      },
      "geometry": {
        "type": "Point",
        "coordinates": [
          8.4216589,
          49.0069647
        ]
      },
      "id": "way/193681267"
    },
    {
      "type": "Feature",
      "properties": {
        "@id": "way/220257054",
        "addr:city": "Karlsruhe",
        "addr:housename": "D3.1",
        "addr:housenumber": "9",
        "addr:postcode": "76131",
        "addr:street": "Degenfeldstraße",
        "building": "dormitory",
        "operator": "Upartments Real Estate GmbH",
        "start_date": "2011",
        "@geometry": "center"
      },
      "geometry": {
        "type": "Point",
        "coordinates": [
          8.4219389,
          49.0073342
        ]
      },
      "id": "way/220257054"
    },
    {
      "type": "Feature",
      "properties": {
        "@id": "way/220257055",
        "addr:city": "Karlsruhe",
        "addr:housename": "D4.0",
        "addr:housenumber": "5",
        "addr:postcode": "76131",
        "addr:street": "Degenfeldstraße",
        "building": "dormitory",
        "operator": "Upartments Real Estate GmbH",
        "start_date": "2011",
        "@geometry": "center"
      },
      "geometry": {
        "type": "Point",
        "coordinates": [
          8.4210577,
          49.0074946
        ]
      },
      "id": "way/220257055"
    },
    {
      "type": "Feature",
      "properties": {
        "@id": "way/220257056",
        "addr:city": "Karlsruhe",
        "addr:country": "DE",
        "addr:housename": "D3.2",
        "addr:housenumber": "7",
        "addr:postcode": "76131",
        "addr:street": "Degenfeldstraße",
        "building": "dormitory",
        "operator": "Upartments Real Estate GmbH",
        "start_date": "2011",
        "@geometry": "center"
      },
      "geometry": {
        "type": "Point",
        "coordinates": [
          8.4214502,
          49.0074238
        ]
      },
      "id": "way/220257056"
    },
    {
      "type": "Feature",
      "properties": {
        "@id": "way/321000431",
        "building": "dormitory",
        "source:geometry": "Maps4BW, LGL, www.lgl-bw.de",
        "@geometry": "center"
      },
      "geometry": {
        "type": "Point",
        "coordinates": [
          8.409205,
          48.9966754
        ]
      },
      "id": "way/321000431"
    },
    {
      "type": "Feature",
      "properties": {
        "@id": "way/349661324",
        "building": "dormitory",
        "source:outline": "bing",
        "@geometry": "center"
      },
      "geometry": {
        "type": "Point",
        "coordinates": [
          8.2983164,
          49.044084
        ]
      },
      "id": "way/349661324"
    },
    {
      "type": "Feature",
      "properties": {
        "@id": "way/356386053",
        "addr:city": "Karlsruhe",
        "addr:country": "DE",
        "addr:housename": "K2",
        "addr:housenumber": "30",
        "addr:postcode": "76131",
        "addr:street": "Klosterweg",
        "addr:suburb": "Oststadt",
        "building": "dormitory",
        "building:colour": "#E0E6DF",
        "building:levels": "7",
        "note:editor": "square_k2",
        "ref": "K2",
        "roof:colour": "#856B5B",
        "roof:shape": "flat",
        "wheelchair": "limited",
        "@geometry": "center"
      },
      "geometry": {
        "type": "Point",
        "coordinates": [
          8.4222577,
          49.0201005
        ]
      },
      "id": "way/356386053"
    },
    {
      "type": "Feature",
      "properties": {
        "@id": "way/356388252",
        "addr:city": "Karlsruhe",
        "addr:country": "DE",
        "addr:housename": "K5",
        "addr:housenumber": "38",
        "addr:postcode": "76131",
        "addr:street": "Klosterweg",
        "addr:suburb": "Oststadt",
        "building": "dormitory",
        "building:colour": "#E0E6DF",
        "building:levels": "6",
        "ref": "K5",
        "roof:colour": "#856B5B",
        "roof:shape": "flat",
        "wheelchair": "limited",
        "@geometry": "center"
      },
      "geometry": {
        "type": "Point",
        "coordinates": [
          8.4238692,
          49.0199343
        ]
      },
      "id": "way/356388252"
    },
    {
      "type": "Feature",
      "properties": {
        "@id": "way/356388258",
        "addr:city": "Karlsruhe",
        "addr:country": "DE",
        "addr:housename": "K1",
        "addr:housenumber": "28",
        "addr:postcode": "76131",
        "addr:street": "Klosterweg",
        "addr:suburb": "Oststadt",
        "building": "dormitory",
        "building:colour": "#E0E6DF",
        "building:levels": "4",
        "note:editor": "square_k1",
        "ref": "K1",
        "roof:colour": "#856B5B",
        "roof:levels": "0",
        "roof:shape": "flat",
        "wheelchair": "limited",
        "@geometry": "center"
      },
      "geometry": {
        "type": "Point",
        "coordinates": [
          8.4225256,
          49.0194929
        ]
      },
      "id": "way/356388258"
    },
    {
      "type": "Feature",
      "properties": {
        "@id": "way/356388264",
        "addr:city": "Karlsruhe",
        "addr:country": "DE",
        "addr:housename": "K4",
        "addr:housenumber": "36",
        "addr:postcode": "76131",
        "addr:street": "Klosterweg",
        "addr:suburb": "Oststadt",
        "building": "dormitory",
        "building:colour": "#E0E6DF",
        "building:levels": "6",
        "note:editor": "square_k4",
        "ref": "K4",
        "roof:colour": "#856B5B",
        "roof:shape": "flat",
        "wheelchair": "limited",
        "@geometry": "center"
      },
      "geometry": {
        "type": "Point",
        "coordinates": [
          8.4236223,
          49.0206335
        ]
      },
      "id": "way/356388264"
    },
    {
      "type": "Feature",
      "properties": {
        "@id": "way/356388269",
        "addr:city": "Karlsruhe",
        "addr:country": "DE",
        "addr:housename": "K3",
        "addr:housenumber": "34",
        "addr:postcode": "76131",
        "addr:street": "Klosterweg",
        "addr:suburb": "Oststadt",
        "building": "dormitory",
        "building:colour": "#E0E6DF",
        "building:levels": "6",
        "note:editor": "square_k3",
        "ref": "K3",
        "roof:colour": "#856B5B",
        "roof:shape": "flat",
        "wheelchair": "limited",
        "@geometry": "center"
      },
      "geometry": {
        "type": "Point",
        "coordinates": [
          8.4230334,
          49.0204099
        ]
      },
      "id": "way/356388269"
    },
    {
      "type": "Feature",
      "properties": {
        "@id": "way/364702819",
        "building": "dormitory",
        "@geometry": "center"
      },
      "geometry": {
        "type": "Point",
        "coordinates": [
          8.3813415,
          49.0005312
        ]
      },
      "id": "way/364702819"
    },
    {
      "type": "Feature",
      "properties": {
        "@id": "way/429723335",
        "addr:city": "Karlsruhe",
        "addr:country": "DE",
        "addr:housenumber": "2c",
        "addr:postcode": "76131",
        "addr:street": "Rintheimer Querallee",
        "addr:suburb": "Rinheim",
        "building": "dormitory",
        "building:levels": "2",
        "capacity": "69",
        "heritage": "yes",
        "operator": "Studierendenwerk Karlsruhe",
        "roof:levels": "2",
        "roof:material": "roof_tiles",
        "roof:shape": "hipped",
        "source:geometry": "Maps4BW, LGL, www.lgl-bw.de",
        "start_date": "1938",
        "@geometry": "center"
      },
      "geometry": {
        "type": "Point",
        "coordinates": [
          8.4325192,
          49.0211392
        ]
      },
      "id": "way/429723335"
    },
    {
      "type": "Feature",
      "properties": {
        "@id": "way/510400087",
        "addr:city": "Karlsruhe",
        "addr:housenumber": "82a",
        "addr:postcode": "76137",
        "addr:street": "Werderstraße",
        "building": "dormitory",
        "building:levels": "4",
        "roof:levels": "1",
        "start_date": "2017",
        "@geometry": "center"
      },
      "geometry": {
        "type": "Point",
        "coordinates": [
          8.4112581,
          49.001477
        ]
      },
      "id": "way/510400087"
    },
    {
      "type": "Feature",
      "properties": {
        "@id": "way/579034033",
        "addr:city": "Karlsruhe",
        "addr:country": "DE",
        "addr:housenumber": "4",
        "addr:postcode": "76131",
        "addr:street": "Zähringerstraße",
        "building": "dormitory",
        "building:levels": "3",
        "roof:levels": "1",
        "roof:shape": "gabled",
        "@geometry": "center"
      },
      "geometry": {
        "type": "Point",
        "coordinates": [
          8.4147511,
          49.0085636
        ]
      },
      "id": "way/579034033"
    },
    {
      "type": "Feature",
      "properties": {
        "@id": "way/579053001",
        "building": "dormitory",
        "source:geometry": "Bing 2020",
        "start_date": "2017",
        "@geometry": "center"
      },
      "geometry": {
        "type": "Point",
        "coordinates": [
          8.4165785,
          49.0932923
        ]
      },
      "id": "way/579053001"
    },
    {
      "type": "Feature",
      "properties": {
        "@id": "way/579053002",
        "building": "dormitory",
        "source:geometry": "Bing 2020",
        "start_date": "2017",
        "@geometry": "center"
      },
      "geometry": {
        "type": "Point",
        "coordinates": [
          8.4161113,
          49.0935224
        ]
      },
      "id": "way/579053002"
    },
    {
      "type": "Feature",
      "properties": {
        "@id": "way/579053003",
        "building": "dormitory",
        "source:geometry": "Bing 2020",
        "start_date": "2017",
        "@geometry": "center"
      },
      "geometry": {
        "type": "Point",
        "coordinates": [
          8.4158617,
          49.0930997
        ]
      },
      "id": "way/579053003"
    },
    {
      "type": "Feature",
      "properties": {
        "@id": "way/579053004",
        "building": "dormitory",
        "source:geometry": "Bing 2020",
        "start_date": "2017",
        "@geometry": "center"
      },
      "geometry": {
        "type": "Point",
        "coordinates": [
          8.4160868,
          49.0929725
        ]
      },
      "id": "way/579053004"
    },
    {
      "type": "Feature",
      "properties": {
        "@id": "way/669440367",
        "addr:city": "Karlsruhe",
        "addr:country": "DE",
        "addr:housenumber": "6",
        "addr:postcode": "76139",
        "addr:street": "Beuthener Straße",
        "addr:suburb": "Waldstadt",
        "building": "dormitory",
        "building:levels": "5",
        "name": "Wohnheim Beuthener Straße 6",
        "operator": "Studentenwerk Karlsruhe",
        "roof:levels": "1",
        "roof:shape": "many",
        "source:geometry": "Maps4BW, LGL, www.lgl-bw.de",
        "website": "http://www.studentenwerk-karlsruhe.de/de/wohnen/wohnheime_ka/beuthener_strasse_6/",
        "@geometry": "center"
      },
      "geometry": {
        "type": "Point",
        "coordinates": [
          8.4458496,
          49.0346536
        ]
      },
      "id": "way/669440367"
    },
    {
      "type": "Feature",
      "properties": {
        "@id": "way/759415978",
        "addr:housenumber": "27",
        "addr:street": "Henriette-Obermüller-Straße",
        "building": "dormitory",
        "building:levels": "1",
        "fixme": "what is this?",
        "roof:levels": "0",
        "source:geometry": "Maps4BW, LGL, www.lgl-bw.de",
        "start_date": "~2004",
        "@geometry": "center"
      },
      "geometry": {
        "type": "Point",
        "coordinates": [
          8.4146867,
          49.0020227
        ]
      },
      "id": "way/759415978"
    },
    {
      "type": "Feature",
      "properties": {
        "@id": "way/1037821346",
        "addr:housename": "K6",
        "addr:housenumber": "25",
        "addr:postcode": "76131",
        "addr:street": "Hagsfelder Allee",
        "building": "dormitory",
        "building:levels": "4",
        "name": "Schroff-Kolleg",
        "note:editor": "square_k6",
        "operator": "Studentenwohnheim des Karlsruher Instituts für Technologie (KIT) e.V.",
        "ref": "K6",
        "roof:shape": "flat",
        "source:geometry": "Maxar 2021",
        "start_date": "2022-03-01",
        "@geometry": "center"
      },
      "geometry": {
        "type": "Point",
        "coordinates": [
          8.4253031,
          49.0188948
        ]
      },
      "id": "way/1037821346"
    }
  ]
}